{
"type": "FeatureCollection",
"name": "mayab_poligonos",
"crs": { "type": "name", "properties": { "name": "urn:ogc:def:crs:OGC:1.3:CRS84" } },
"features": [
{ "type": "Feature", "properties": { "id": 1 }, "geometry": { "type": "MultiPolygon", "coordinates": [ [ [ [ -89.6803097638917, 20.866465903958268 ], [ -89.635216710588665, 20.871010856300106 ], [ -89.620425979994792, 20.872433126060127 ], [ -89.603067761565441, 20.877089588498677 ], [ -89.597810778796514, 20.87731749327984 ], [ -89.589362139305933, 20.885650792148873 ], [ -89.585663245873917, 20.88223251809293 ], [ -89.584314607043439, 20.879826036060592 ], [ -89.581151313697703, 20.880060098281156 ], [ -89.571442666481445, 20.877463314294982 ], [ -89.56740563575157, 20.875821347219809 ], [ -89.566434121212168, 20.876890246782256 ], [ -89.570810256769207, 20.880528362584737 ], [ -89.573107785438694, 20.883996669031973 ], [ -89.572655971299824, 20.885108040083285 ], [ -89.563911340491913, 20.887182531786003 ], [ -89.565493163578765, 20.888952126085044 ], [ -89.564935859203615, 20.891203133694088 ], [ -89.561267593401553, 20.891231521939243 ], [ -89.559135965932029, 20.885972144196074 ], [ -89.55734339550888, 20.882708910245356 ], [ -89.55581443413962, 20.882255848876039 ], [ -89.554579124716156, 20.88428735301876 ], [ -89.548825161732111, 20.878567579621535 ], [ -89.547552607958863, 20.875346755497567 ], [ -89.551024736335123, 20.873662315534084 ], [ -89.553344339255133, 20.875000272124343 ], [ -89.554782940878468, 20.872657344121858 ], [ -89.55442904415456, 20.870824002106922 ], [ -89.5584732776571, 20.874271324419311 ], [ -89.559685837264922, 20.874370431013329 ], [ -89.560205501223223, 20.870640064025896 ], [ -89.555272597910999, 20.869252607322107 ], [ -89.5553555369398, 20.866470769913935 ], [ -89.561184534376167, 20.867603392109405 ], [ -89.545890812730036, 20.84994913990387 ], [ -89.54493481490141, 20.847082304931025 ], [ -89.530078246869678, 20.847342011731715 ], [ -89.526449388051034, 20.84507617860444 ], [ -89.524723641145712, 20.850511981337593 ], [ -89.528322419797178, 20.853103464197201 ], [ -89.53388041606398, 20.849621948648824 ], [ -89.541514788107904, 20.857628740694341 ], [ -89.536755099241532, 20.860027676489231 ], [ -89.535203480171973, 20.861705022043335 ], [ -89.535730297977651, 20.863552581724871 ], [ -89.535293335878237, 20.864501024441942 ], [ -89.543998560534419, 20.868494442385469 ], [ -89.542748115848596, 20.870688635226099 ], [ -89.540676793573752, 20.872323518033401 ], [ -89.538508247240529, 20.869357341262553 ], [ -89.534509235803924, 20.869193919862383 ], [ -89.533447685072971, 20.867466590598877 ], [ -89.528695493847138, 20.867897475637729 ], [ -89.528174076931208, 20.875400568963023 ], [ -89.525907103642965, 20.875378843387583 ], [ -89.524784206598483, 20.878075502946146 ], [ -89.518277288458719, 20.876721864169308 ], [ -89.518384248030259, 20.871809411205309 ], [ -89.507719134325654, 20.873887206364397 ], [ -89.492673977583451, 20.853622772189507 ], [ -89.495851941654564, 20.853227751387038 ], [ -89.496481026377666, 20.844585311084227 ], [ -89.498686942661479, 20.845258658302157 ], [ -89.503384691339917, 20.847284888059892 ], [ -89.506480039338911, 20.845898645358613 ], [ -89.505373654687602, 20.844659539446958 ], [ -89.503310636854096, 20.844326103567937 ], [ -89.498411273933769, 20.838838485929411 ], [ -89.503102027297643, 20.839059736618161 ], [ -89.509169904573369, 20.841362340042213 ], [ -89.511690476806436, 20.825493599930066 ], [ -89.508920000033584, 20.825266192417807 ], [ -89.506697745908696, 20.828528515428111 ], [ -89.50542361511765, 20.832852900783628 ], [ -89.502925286373923, 20.829695066790954 ], [ -89.500931411665121, 20.826742664935345 ], [ -89.497927242443723, 20.827152011402781 ], [ -89.498324129648523, 20.815373972889141 ], [ -89.494419416272422, 20.810460070144746 ], [ -89.486132778959302, 20.80764624150072 ], [ -89.48871857355438, 20.800477296745818 ], [ -89.48746536375721, 20.793320722664024 ], [ -89.48291686263488, 20.784088671063721 ], [ -89.481746323740765, 20.777923098525786 ], [ -89.485517518452468, 20.776757113581333 ], [ -89.495160367869971, 20.772465167397577 ], [ -89.495709882091205, 20.772182280175038 ], [ -89.488857615982411, 20.765221580404354 ], [ -89.48320452332517, 20.754750567995547 ], [ -89.482484142678629, 20.764369117093146 ], [ -89.481623058919425, 20.769875340199274 ], [ -89.468244184014665, 20.767461360587586 ], [ -89.469612374880441, 20.758388242776526 ], [ -89.465860351588944, 20.764968461873476 ], [ -89.454461885271769, 20.761896241918244 ], [ -89.452473151532075, 20.764520773272249 ], [ -89.440386112528316, 20.757617851045964 ], [ -89.433807536054147, 20.751497231917899 ], [ -89.43366842092955, 20.747384865427495 ], [ -89.418343516631793, 20.745297578616981 ], [ -89.407130586142785, 20.740268548952326 ], [ -89.40579288067407, 20.719161246321182 ], [ -89.384762529862954, 20.716597614108817 ], [ -89.386329260765592, 20.709181978690157 ], [ -89.389850118734827, 20.708817910906323 ], [ -89.391793508212686, 20.706682611224732 ], [ -89.391457508274172, 20.704686339490564 ], [ -89.394225310818939, 20.70491586038079 ], [ -89.395465991415733, 20.699113538433519 ], [ -89.401958693883856, 20.704244621481955 ], [ -89.408417666778092, 20.692969450905622 ], [ -89.403050063786097, 20.690720421471926 ], [ -89.39578991763679, 20.686345909175547 ], [ -89.393430028605394, 20.691071166253195 ], [ -89.400156187405443, 20.695565566234229 ], [ -89.397816063493977, 20.696355785998623 ], [ -89.392270250669185, 20.692287239265674 ], [ -89.385015550371605, 20.689716995615395 ], [ -89.37700306437857, 20.697089518995657 ], [ -89.36919396557019, 20.692996162214708 ], [ -89.373640548222852, 20.686476136912503 ], [ -89.376550383322666, 20.687045872857258 ], [ -89.379836615226935, 20.681741630599682 ], [ -89.389176562271288, 20.685305315437017 ], [ -89.39014785022944, 20.681449139304089 ], [ -89.382357174760131, 20.680884669528137 ], [ -89.380767383111248, 20.674601512666488 ], [ -89.372361692056728, 20.673165277780267 ], [ -89.368368896200138, 20.670208997405091 ], [ -89.366486517871039, 20.674481421130501 ], [ -89.356590884160923, 20.671280122256263 ], [ -89.362998020598312, 20.642943523411674 ], [ -89.35269019120021, 20.640445703346199 ], [ -89.349406236745935, 20.65870788706474 ], [ -89.342189366812178, 20.657614896237508 ], [ -89.338095927014308, 20.654813414353878 ], [ -89.343270330650924, 20.647042826601488 ], [ -89.338936225096631, 20.642170925991373 ], [ -89.342579319942971, 20.634929003369269 ], [ -89.343820870371331, 20.631915847951724 ], [ -89.35670820880452, 20.620850628007123 ], [ -89.353166306422722, 20.60940205400653 ], [ -89.356539949577552, 20.607796546945558 ], [ -89.361559115556787, 20.598864767946242 ], [ -89.367812639648719, 20.593480053224226 ], [ -89.370756252521659, 20.589952289048831 ], [ -89.372334801365511, 20.587049118603733 ], [ -89.376742123583867, 20.584627067421252 ], [ -89.381949887731707, 20.582025367898886 ], [ -89.385792673986558, 20.580048253788604 ], [ -89.392347240865462, 20.578870216166393 ], [ -89.392862772935473, 20.575222602986209 ], [ -89.395177985066923, 20.574676662145034 ], [ -89.39570067327638, 20.568159362908016 ], [ -89.40365010879529, 20.568818810661014 ], [ -89.406661889991383, 20.570134644347601 ], [ -89.409236183478257, 20.56960998358144 ], [ -89.411798016507703, 20.570150345645587 ], [ -89.413626334814865, 20.564561348027354 ], [ -89.412872832687313, 20.559578491046093 ], [ -89.408518953794484, 20.555855328065608 ], [ -89.408023373933275, 20.555568221523533 ], [ -89.404613610349429, 20.557581684772 ], [ -89.405291195741668, 20.553127495523302 ], [ -89.407613584263984, 20.552499999118336 ], [ -89.408078111442691, 20.550324337670929 ], [ -89.410171666937146, 20.549349810930028 ], [ -89.414870212542937, 20.550313272059036 ], [ -89.419883157615629, 20.548842451279015 ], [ -89.423946599840633, 20.55008104211862 ], [ -89.426017254977921, 20.54935042758169 ], [ -89.42990038282359, 20.550655931011999 ], [ -89.434355098951769, 20.551434585531506 ], [ -89.433049132731597, 20.557968971722598 ], [ -89.435332973089245, 20.562422215822338 ], [ -89.436642501877799, 20.564252660147858 ], [ -89.444020376649917, 20.565436763845398 ], [ -89.444654658313354, 20.553024410290803 ], [ -89.446954117306362, 20.55264044754637 ], [ -89.449767398648305, 20.553282964529686 ], [ -89.451863733410462, 20.553210161256509 ], [ -89.453761406723402, 20.547790649868485 ], [ -89.457622032795001, 20.549339579053221 ], [ -89.461902336983613, 20.547314890893375 ], [ -89.468151911641399, 20.549388757658395 ], [ -89.468135491378305, 20.551437488157664 ], [ -89.47594377209667, 20.554541655003913 ], [ -89.477032383523621, 20.555943468535489 ], [ -89.478063721809235, 20.558898617045955 ], [ -89.481155951983723, 20.5584154845602 ], [ -89.483249105382058, 20.557439947008319 ], [ -89.488055258369073, 20.55537585248441 ], [ -89.492690827112753, 20.556085658175164 ], [ -89.498190490917167, 20.556866445053913 ], [ -89.500940346659092, 20.557256764184256 ], [ -89.50429427865636, 20.559582779448547 ], [ -89.508659178885253, 20.561335841761831 ], [ -89.512884985599385, 20.563651351396224 ], [ -89.520244927124693, 20.564092219591434 ], [ -89.522378549795576, 20.565497527037575 ], [ -89.523131583424416, 20.573349562095579 ], [ -89.539039907295333, 20.574573359562986 ], [ -89.544968819297281, 20.576371609121797 ], [ -89.543080178999688, 20.56572062206698 ], [ -89.540037342957248, 20.562847032140951 ], [ -89.539979373145869, 20.548410248526778 ], [ -89.537494596205676, 20.535742472270254 ], [ -89.539928659723913, 20.53577819674744 ], [ -89.546348022580403, 20.536960725091241 ], [ -89.549153930208675, 20.537682779769323 ], [ -89.555667558418989, 20.533132762624341 ], [ -89.561669919514102, 20.528458647256148 ], [ -89.563686774940635, 20.522638039819796 ], [ -89.565294289190035, 20.522195701056393 ], [ -89.569151644442826, 20.522839495404195 ], [ -89.575517913904477, 20.522704524035056 ], [ -89.57979949407023, 20.521578838482316 ], [ -89.580824447156161, 20.518956801539844 ], [ -89.579347867986556, 20.51514622753978 ], [ -89.582141480013235, 20.511274939171365 ], [ -89.58362069168183, 20.508444078793332 ], [ -89.587935281490857, 20.506009005067131 ], [ -89.588840064106464, 20.504689056115556 ], [ -89.585384674597492, 20.502520705137446 ], [ -89.583277791706692, 20.501774465265232 ], [ -89.581624990295865, 20.498933477067908 ], [ -89.580772083351249, 20.495911919263531 ], [ -89.575976963158439, 20.497897461861491 ], [ -89.568361334310438, 20.497438095102503 ], [ -89.569926637364162, 20.488956814131452 ], [ -89.565026296541348, 20.48642367755377 ], [ -89.562484261613633, 20.48851129822075 ], [ -89.555943077044503, 20.489615193859532 ], [ -89.546833391327581, 20.490262175020476 ], [ -89.539237243384761, 20.488654965929673 ], [ -89.527353771434875, 20.484481303172831 ], [ -89.525266559402198, 20.482587891210354 ], [ -89.539704752817698, 20.4760660419327 ], [ -89.541907398630002, 20.457880094287997 ], [ -89.566320515333729, 20.460127770357342 ], [ -89.572856885367216, 20.463778742711696 ], [ -89.589691591537971, 20.466139890194636 ], [ -89.590287717226971, 20.462498997227616 ], [ -89.590257334304809, 20.460938674149855 ], [ -89.57957271820662, 20.459818825682071 ], [ -89.580708489370622, 20.448432942860585 ], [ -89.586373032029769, 20.448322385721585 ], [ -89.587715857974118, 20.443184803759731 ], [ -89.582561742569709, 20.441533359065549 ], [ -89.584095538060467, 20.433377823450677 ], [ -89.576490783353123, 20.430951716187682 ], [ -89.577105492686599, 20.424278861782348 ], [ -89.558035708571182, 20.415091517810495 ], [ -89.559656979984283, 20.412600762309587 ], [ -89.564636692879773, 20.402924248998712 ], [ -89.576548453143189, 20.411442933909751 ], [ -89.575464475377544, 20.416601485859633 ], [ -89.579799590426504, 20.419580009874071 ], [ -89.57982623430928, 20.422123859526202 ], [ -89.594445827780987, 20.426763181077117 ], [ -89.5972157670451, 20.426907589719583 ], [ -89.600307449983006, 20.42355272541403 ], [ -89.639202874630413, 20.445172832673791 ], [ -89.642011029269071, 20.482870528676251 ], [ -89.64155593724432, 20.487834908631793 ], [ -89.640464121681518, 20.489303858430844 ], [ -89.643117192230093, 20.492635460104552 ], [ -89.642124636696593, 20.496818216965011 ], [ -89.639464194945077, 20.500209287854954 ], [ -89.635775608121676, 20.50532044205325 ], [ -89.634895767192546, 20.510168337873516 ], [ -89.634248366821168, 20.514379237966402 ], [ -89.636621288640058, 20.519819996653229 ], [ -89.635233711126872, 20.52356070487949 ], [ -89.633954852330064, 20.527064289493161 ], [ -89.635265505168235, 20.546931618814057 ], [ -89.635502226756984, 20.560480114242701 ], [ -89.683652330371118, 20.561358015823217 ], [ -89.685870395065123, 20.526609164891372 ], [ -89.692488477244751, 20.526571705449729 ], [ -89.69260642247913, 20.535764259565411 ], [ -89.697373369362936, 20.535986489762632 ], [ -89.700713332236489, 20.536584963652501 ], [ -89.702258427168019, 20.537775960818777 ], [ -89.703023198817434, 20.539887657713042 ], [ -89.70514618764679, 20.540469482473625 ], [ -89.706097296825391, 20.537676790065827 ], [ -89.707650496164717, 20.535916719606462 ], [ -89.715885800401793, 20.537238940831042 ], [ -89.715709471729738, 20.543947900833604 ], [ -89.708337825663108, 20.542695591709283 ], [ -89.710430068769369, 20.549342194433169 ], [ -89.707884353972929, 20.550530055608583 ], [ -89.702986621766257, 20.547919848109782 ], [ -89.704629055779534, 20.555678044927546 ], [ -89.704028174120424, 20.55940104537515 ], [ -89.704385300393, 20.563119610624614 ], [ -89.710540713058137, 20.564355646876361 ], [ -89.728597218585406, 20.576392291643323 ], [ -89.730853922275699, 20.58411785166771 ], [ -89.752106197010747, 20.599361278540911 ], [ -89.757475089819266, 20.595858332060192 ], [ -89.758263698073151, 20.600595420311482 ], [ -89.759729164119705, 20.605551026933217 ], [ -89.758143939242458, 20.608621036896331 ], [ -89.753486034699364, 20.612919320747096 ], [ -89.751137283696622, 20.615763772575384 ], [ -89.750055683115306, 20.619038328160045 ], [ -89.748907398427349, 20.623045459441599 ], [ -89.749567359032923, 20.627280365720697 ], [ -89.74870298247194, 20.630080493132127 ], [ -89.752077791536621, 20.632238381791197 ], [ -89.767468908784949, 20.633477958039784 ], [ -89.779436310938962, 20.635014657643865 ], [ -89.781207860675948, 20.635649052444094 ], [ -89.787157468304528, 20.643998611021509 ], [ -89.786313792706082, 20.654262049020218 ], [ -89.785386649208419, 20.66640474882562 ], [ -89.782342395839308, 20.674031665370805 ], [ -89.779485573535808, 20.681509665864255 ], [ -89.77479635904551, 20.721639503895638 ], [ -89.749440561131593, 20.751251336080191 ], [ -89.74215212837349, 20.772886900153551 ], [ -89.734503130246452, 20.770712280219325 ], [ -89.731624363090219, 20.776466430292466 ], [ -89.723285458002451, 20.773251549261765 ], [ -89.711031352283996, 20.77472224642429 ], [ -89.714305354244743, 20.791387793966276 ], [ -89.712168838243457, 20.802368114666194 ], [ -89.703314094005094, 20.800012588896081 ], [ -89.703228238780099, 20.797135407782815 ], [ -89.699723559499574, 20.796360064330031 ], [ -89.699679694262869, 20.793978317985498 ], [ -89.695370907860223, 20.794367959664154 ], [ -89.696960594348752, 20.788428016142927 ], [ -89.693154603843723, 20.787136097313709 ], [ -89.690717655754469, 20.796615781659252 ], [ -89.692052465590081, 20.799183993497934 ], [ -89.691833680894234, 20.802528606509107 ], [ -89.688714261734845, 20.803260320367126 ], [ -89.685275684616485, 20.817005491821519 ], [ -89.691511392141038, 20.819396225775343 ], [ -89.69241915570511, 20.812334915682374 ], [ -89.694717662401629, 20.811044670994381 ], [ -89.701878598350817, 20.812853738215647 ], [ -89.70283714050349, 20.808092758237972 ], [ -89.704734382395984, 20.808328089209226 ], [ -89.713562104351197, 20.812895511996139 ], [ -89.714243226167554, 20.822627392479511 ], [ -89.694770869836063, 20.822858183168151 ], [ -89.685235124233841, 20.826023213358468 ], [ -89.679841490331313, 20.826816772378073 ], [ -89.674700657457251, 20.837225824202815 ], [ -89.674757693641894, 20.842315106357713 ], [ -89.670415893917749, 20.841143304002198 ], [ -89.670451663459474, 20.838849896290029 ], [ -89.666625095439429, 20.83681759865695 ], [ -89.665456069070004, 20.839101172043904 ], [ -89.666508634229373, 20.84189284665954 ], [ -89.668113665502347, 20.843417102831598 ], [ -89.666892349971945, 20.846270543357971 ], [ -89.663425386164221, 20.846973691139855 ], [ -89.660579521792073, 20.847563098361192 ], [ -89.658754844973203, 20.84938343373609 ], [ -89.659245956459429, 20.851637582428786 ], [ -89.661958904457663, 20.854399910274719 ], [ -89.659633896120312, 20.856917822513282 ], [ -89.659977282354049, 20.857929812595462 ], [ -89.672795090826128, 20.858968485220057 ], [ -89.67489898351387, 20.857908690570817 ], [ -89.678736632790844, 20.858875497914799 ], [ -89.6803097638917, 20.866465903958268 ] ] ] ] } }
]
}
