{
"type": "FeatureCollection",
"name": "mayakaan_poli",
"crs": { "type": "name", "properties": { "name": "urn:ogc:def:crs:OGC:1.3:CRS84" } },
"features": [
{ "type": "Feature", "properties": { "id": null }, "geometry": { "type": "MultiPolygon", "coordinates": [ [ [ [ -89.146666850265674, 19.423861650160475 ], [ -89.2965618203677, 19.551174089774811 ], [ -89.219556570378145, 19.608022249811874 ], [ -89.222868740324515, 19.636656970169444 ], [ -89.192689579509633, 19.633557370166614 ], [ -89.18920314032934, 19.644005940450086 ], [ -89.144861689907813, 19.637398719799904 ], [ -89.149520650465021, 19.581249339716987 ], [ -89.109024460257132, 19.582349380296378 ], [ -89.108391679904116, 19.612338490239356 ], [ -89.133640600383458, 19.614632029677875 ], [ -89.123398519909827, 19.703424149705711 ], [ -89.074212689862662, 19.694194110277902 ], [ -89.076030600023259, 19.685432549997749 ], [ -89.036200459608224, 19.678039520365452 ], [ -89.030523629818646, 19.708831749731996 ], [ -88.997529380192816, 19.704883890224036 ], [ -88.994741279800209, 19.727439600081219 ], [ -88.996622379629457, 19.726779520225161 ], [ -88.997499880122348, 19.726759710437069 ], [ -89.015385339564006, 19.722973380082845 ], [ -89.016951850192484, 19.726386710279428 ], [ -89.048827059716743, 19.721493320330534 ], [ -89.0251629796673, 19.77670967959779 ], [ -89.007143649740314, 19.772751920082325 ], [ -89.00585622982635, 19.772407279885805 ], [ -89.004087429919437, 19.772007400012686 ], [ -88.999467969830974, 19.797994380381045 ], [ -88.98440498042325, 19.798160260377603 ], [ -88.984746569787944, 19.799861690243681 ], [ -88.984439149534495, 19.805205140102601 ], [ -88.976108510007577, 19.810765830163849 ], [ -88.974451769601657, 19.818100830317064 ], [ -88.964650120160627, 19.817528319751244 ], [ -88.959079110031382, 19.816934650395929 ], [ -88.956386719718964, 19.816823549853812 ], [ -88.958076800333089, 19.810466540444949 ], [ -88.943852140061196, 19.813442779761886 ], [ -88.945433749586783, 19.791946320019704 ], [ -88.929512460381943, 19.790948549743632 ], [ -88.920294139941873, 19.803973909774392 ], [ -88.911103970423866, 19.800937579952819 ], [ -88.909730939671803, 19.813587709955829 ], [ -88.908209749886765, 19.820661089833408 ], [ -88.905065890479477, 19.826703519695371 ], [ -88.903481109710157, 19.831046229654316 ], [ -88.902533230125584, 19.832144720335418 ], [ -88.899724860389583, 19.833346879876377 ], [ -88.89758543020875, 19.836862539809271 ], [ -88.898811649863944, 19.851662599662909 ], [ -88.900488020167614, 19.861114020317192 ], [ -88.890421580151568, 19.858544540275119 ], [ -88.890568570116869, 19.86096861971496 ], [ -88.879124830390211, 19.862393230298366 ], [ -88.879232309860683, 19.866177399824508 ], [ -88.880191540115092, 19.878124880218223 ], [ -88.869951460469608, 19.878256489804677 ], [ -88.866418170266726, 19.87805485008845 ], [ -88.862648319788235, 19.878451139722515 ], [ -88.833042999572953, 19.878227110177342 ], [ -88.832139429744927, 19.881606059841733 ], [ -88.825926339722187, 19.879925579709052 ], [ -88.820414050206594, 19.890473150092298 ], [ -88.82982471975177, 19.898554450219919 ], [ -88.827365449906267, 19.904487689631285 ], [ -88.829436720268617, 19.906014600216391 ], [ -88.827277550341435, 19.910481419705317 ], [ -88.827510910356054, 19.910612259649284 ], [ -88.827282739684932, 19.910920370133294 ], [ -88.823152489897225, 19.908149139697478 ], [ -88.82442541968544, 19.90476291013735 ], [ -88.822733999878523, 19.904143679650907 ], [ -88.820165909745739, 19.905558510113373 ], [ -88.817881480418464, 19.904065179661114 ], [ -88.817160740007964, 19.90494314985277 ], [ -88.816503290336314, 19.904473520415323 ], [ -88.816142800467233, 19.915499029958976 ], [ -88.813333179895423, 19.918282819690386 ], [ -88.812584380236046, 19.925555030272008 ], [ -88.809744860028175, 19.925990940054952 ], [ -88.809850980165308, 19.926989859971535 ], [ -88.808888340214011, 19.934121310018156 ], [ -88.811418170015841, 19.935242219942594 ], [ -88.810176220466218, 19.944946679712334 ], [ -88.806040750418688, 19.944568649990433 ], [ -88.80563950997491, 19.953830739689636 ], [ -88.798377650448984, 19.952523020233588 ], [ -88.798754079909259, 19.970402740276256 ], [ -88.798022380417081, 19.974930079820833 ], [ -88.790770800047497, 19.972020180309883 ], [ -88.79047988020173, 19.992133509600507 ], [ -88.789212260404796, 19.995568219923349 ], [ -88.784415288213268, 19.99524561235517 ], [ -88.783502417616546, 20.008180174416935 ], [ -88.771180539543536, 20.007670379802214 ], [ -88.771465649652214, 20.013463230392215 ], [ -88.75769759981884, 20.012191920009293 ], [ -88.75777243761182, 20.013936261868068 ], [ -88.742472080000653, 20.015087349940924 ], [ -88.742615350403824, 20.008582779737075 ], [ -88.736245569820184, 20.009661309889026 ], [ -88.732351479985581, 20.014067701055581 ], [ -88.733169719766082, 20.014435490254613 ], [ -88.734191690128512, 20.015275280163554 ], [ -88.735810719824769, 20.015987549666459 ], [ -88.73597765226171, 20.017576174994876 ], [ -88.726569999677679, 20.014768949678249 ], [ -88.722782666144781, 20.013199822857839 ], [ -88.723776783176618, 20.005505100404449 ], [ -88.722148199777351, 20.005124059614218 ], [ -88.718434769586864, 20.010321249622805 ], [ -88.713041430346195, 20.009163450287161 ], [ -88.712523580355636, 20.012295580234898 ], [ -88.700176170053993, 20.010356720341445 ], [ -88.694752540229146, 20.030035659866414 ], [ -88.691796290081115, 20.029213419743051 ], [ -88.684891830082066, 20.077414320321864 ], [ -88.690802109908134, 20.077029569766935 ], [ -88.69060890962362, 20.089856119857672 ], [ -88.639866400158908, 20.120356059713014 ], [ -88.61916715012903, 20.117322570236073 ], [ -88.618623570282736, 20.127769150335602 ], [ -88.620859306227317, 20.130340443471006 ], [ -88.620808459606181, 20.131803549571426 ], [ -88.616383630106768, 20.134460819644953 ], [ -88.612772550443893, 20.134297479683603 ], [ -88.612705949873799, 20.133125050304972 ], [ -88.58797352024915, 20.131451199633315 ], [ -88.587675659697553, 20.140469680396109 ], [ -88.578242080336565, 20.139197050146709 ], [ -88.576681550005361, 20.148078309740423 ], [ -88.507621199922369, 20.143391090063066 ], [ -88.502345249822653, 20.190077949572977 ], [ -88.519929949870672, 20.19232803038981 ], [ -88.443426179660179, 20.238149780355208 ], [ -88.4151138003852, 20.232970450430876 ], [ -88.409122399760236, 20.239728140345623 ], [ -88.402892000067567, 20.239488880037836 ], [ -88.405194140308225, 20.246145050227778 ], [ -88.409127740370394, 20.252097319814833 ], [ -88.400973369562152, 20.251767510306877 ], [ -88.395404199665691, 20.253543449666157 ], [ -88.370807020136468, 20.257789679593003 ], [ -88.356601490260388, 20.258313510123664 ], [ -88.351903370431103, 20.25902306026661 ], [ -88.308788430139629, 20.253510030103104 ], [ -88.272961379733715, 20.269931280183467 ], [ -88.266814949591804, 20.269120319855855 ], [ -88.264634200082497, 20.290342029584249 ], [ -88.232669479562006, 20.290178910226761 ], [ -88.232705169082664, 20.286998449809289 ], [ -88.167162449506549, 20.285418050767206 ], [ -88.136489600397724, 20.281371780308085 ], [ -88.047306599642766, 20.366308721324579 ], [ -88.047533279183611, 20.37881817080228 ], [ -88.034030060074201, 20.378940090181398 ], [ -87.992960029983578, 20.417992920215891 ], [ -87.970089071719755, 20.211172628475747 ], [ -87.622250325557658, 20.209407355585672 ], [ -87.619996368611424, 20.145120992894313 ], [ -87.492590387113978, 20.141166615512066 ], [ -87.470818553493899, 20.132045191241705 ], [ -87.445592602345286, 20.131965420632064 ], [ -87.441983676620112, 20.092547180825214 ], [ -87.387401967762329, 19.939604085506645 ], [ -87.415446136381334, 19.790749619070791 ], [ -87.354925342004563, 19.610303779052014 ], [ -87.390568775893669, 19.33340111995124 ], [ -87.441457845141286, 19.123637492262556 ], [ -87.5100266157758, 19.127528317629231 ], [ -88.010964324365972, 19.122864118745117 ], [ -88.148068507120811, 19.146865737657592 ], [ -88.151774939763882, 19.142720597714248 ], [ -88.154817729308618, 19.15314377002602 ], [ -88.189394945695199, 19.158272350072476 ], [ -88.200748402621244, 19.127325462550921 ], [ -88.199183092007686, 19.110407821661713 ], [ -88.202985063237236, 19.105295390017371 ], [ -88.222910661727852, 19.054462457614903 ], [ -88.362700811036476, 19.094117401059755 ], [ -88.409294350314099, 19.097944670938215 ], [ -88.37179261368226, 19.199868246543648 ], [ -88.463439285724334, 19.194876393875685 ], [ -88.471932064028479, 19.20441636787325 ], [ -88.542211238188457, 19.203695466252469 ], [ -88.543398409030061, 19.19171031185379 ], [ -88.576328084727649, 19.192895680043179 ], [ -88.576357284798888, 19.213375163029621 ], [ -88.58592134375327, 19.220468372085868 ], [ -88.706449796694884, 19.220239115160787 ], [ -88.709825794916824, 19.23399263498586 ], [ -89.146981850039111, 19.226589569591368 ], [ -89.146666850265674, 19.423861650160475 ] ] ] ] } }
]
}
