{
"type": "FeatureCollection",
"name": "poligono_mancomunados",
"crs": { "type": "name", "properties": { "name": "urn:ogc:def:crs:OGC:1.3:CRS84" } },
"features": [
{ "type": "Feature", "properties": { "id": null }, "geometry": { "type": "MultiPolygon", "coordinates": [ [ [ [ -96.478825565645224, 17.29366521625505 ], [ -96.474843866559567, 17.291541643409367 ], [ -96.470915256795067, 17.292337983226499 ], [ -96.470596720868201, 17.292656519153351 ], [ -96.463854377083166, 17.289895874453965 ], [ -96.463111126587179, 17.290161321059674 ], [ -96.437999877687005, 17.278694027692996 ], [ -96.435823215520188, 17.270465182915981 ], [ -96.437097359227593, 17.269721932419991 ], [ -96.437097359227593, 17.267863806180021 ], [ -96.437309716512161, 17.265368608086344 ], [ -96.4367257339796, 17.262236338138965 ], [ -96.436885001943025, 17.261280730358408 ], [ -96.434230535885931, 17.257936103126458 ], [ -96.432797124215085, 17.257352120593897 ], [ -96.432053873719099, 17.25772374584189 ], [ -96.430567372727126, 17.257670656520748 ], [ -96.429399407662004, 17.258413907016738 ], [ -96.428390710560294, 17.257776835163032 ], [ -96.427328924137456, 17.252361724406544 ], [ -96.427541281422023, 17.251830831195122 ], [ -96.423294135730657, 17.247742953467185 ], [ -96.420268044425569, 17.246256452475208 ], [ -96.418144471579879, 17.24630954179635 ], [ -96.415012201632507, 17.243071093206687 ], [ -96.413366432677108, 17.242805646600978 ], [ -96.411773753042837, 17.241637681535853 ], [ -96.410711966619999, 17.239461019369028 ], [ -96.409225465628026, 17.238717768873041 ], [ -96.407367339388045, 17.238133786340477 ], [ -96.405031409257802, 17.238186875661619 ], [ -96.404394337404099, 17.238346143625044 ], [ -96.402695479127559, 17.23739053584449 ], [ -96.399987923749308, 17.237496714486774 ], [ -96.398607601399618, 17.238133786340477 ], [ -96.396112403305935, 17.237868339734767 ], [ -96.393935741139117, 17.236541106706216 ], [ -96.392714686752853, 17.237018910596493 ], [ -96.360967272709914, 17.230966727986299 ], [ -96.367815795137233, 17.216791879241377 ], [ -96.371054243726888, 17.213765787936282 ], [ -96.37110733304803, 17.211907661696308 ], [ -96.370364082552044, 17.209200106318065 ], [ -96.369461564092632, 17.205696211122692 ], [ -96.369514653413773, 17.200174921723921 ], [ -96.368665224275489, 17.198688420731944 ], [ -96.368824492238929, 17.195131436215426 ], [ -96.367178723283516, 17.192795506085176 ], [ -96.366223115502962, 17.188070556503536 ], [ -96.367656527173793, 17.185044465198438 ], [ -96.367762705816077, 17.183451785564174 ], [ -96.367656527173793, 17.181381302039636 ], [ -96.367921973779502, 17.179363907836237 ], [ -96.366329294145231, 17.172780832014624 ], [ -96.368930670881198, 17.161419717290233 ], [ -96.378380570044484, 17.15483664146862 ], [ -96.379707803073032, 17.154730462826336 ], [ -96.381194304065005, 17.153350140476643 ], [ -96.381565929312998, 17.152606889980653 ], [ -96.383424055552979, 17.152022907448092 ], [ -96.386662504142635, 17.149049905464139 ], [ -96.388786076988325, 17.147828851077872 ], [ -96.389051523594034, 17.147297957866449 ], [ -96.390644203228291, 17.147085600581882 ], [ -96.39144054304542, 17.145546010268763 ], [ -96.392555418789414, 17.144378045203638 ], [ -96.394041919781387, 17.14443113452478 ], [ -96.395316063488792, 17.144378045203638 ], [ -96.400571906281854, 17.143794062671077 ], [ -96.40173987134699, 17.143953330634503 ], [ -96.404128890798376, 17.145280563663054 ], [ -96.406305552965193, 17.145015117057344 ], [ -96.408004411241748, 17.144855849093918 ], [ -96.409915626802857, 17.143103901496229 ], [ -96.410552698656559, 17.141935936431103 ], [ -96.441875398130364, 17.125425157555931 ], [ -96.443945881654898, 17.12484117502337 ], [ -96.444954578756594, 17.122929959462258 ], [ -96.445538561289155, 17.121178011864568 ], [ -96.447343598207993, 17.120487850689724 ], [ -96.446759615675418, 17.119160617661173 ], [ -96.44723741956571, 17.118045741917189 ], [ -96.448139938025122, 17.11751484870577 ], [ -96.448777009878825, 17.117567938026912 ], [ -96.449042456484534, 17.116824687530922 ], [ -96.450741314761075, 17.115815990429223 ], [ -96.451537654578203, 17.116346883640645 ], [ -96.452387083716474, 17.116399972961787 ], [ -96.451856190505055, 17.115019650612094 ], [ -96.451856190505055, 17.113002256408695 ], [ -96.452758708964481, 17.112842988445269 ], [ -96.453608138102751, 17.113586238941259 ], [ -96.454669924525589, 17.113904774868111 ], [ -96.455466264342718, 17.115709811786939 ], [ -96.458386177005536, 17.113267703014408 ], [ -96.45875780225353, 17.112630631160702 ], [ -96.460615928493496, 17.111621934059002 ], [ -96.461677714916334, 17.110294701030451 ], [ -96.461996250843185, 17.107958770900204 ], [ -96.463854377083166, 17.106100644660231 ], [ -96.465659414001991, 17.106472269908224 ], [ -96.469004041233944, 17.107852592257917 ], [ -96.469959649014498, 17.109657629176748 ], [ -96.471180703400762, 17.109816897140174 ], [ -96.47351663353102, 17.111462666095576 ], [ -96.479621905462352, 17.110825594241874 ], [ -96.481480031702318, 17.112842988445269 ], [ -96.488859447341071, 17.112842988445269 ], [ -96.490611394938753, 17.113108435050979 ], [ -96.493690575564997, 17.109763807819032 ], [ -96.494274558097558, 17.109392182571039 ], [ -96.494911629951261, 17.107852592257917 ], [ -96.496504309585518, 17.107640234973349 ], [ -96.498468614467782, 17.108489664111623 ], [ -96.506432012639095, 17.10275601742828 ], [ -96.511369319505306, 17.104454875704828 ], [ -96.515935001123523, 17.110029254424742 ], [ -96.523951488615978, 17.114276400116104 ], [ -96.526393597388491, 17.117355580742345 ], [ -96.530959279006709, 17.120328582726298 ], [ -96.531755618823837, 17.121549637112565 ], [ -96.533613745063803, 17.125531336198218 ], [ -96.534569352844372, 17.125956050767353 ], [ -96.536055853836359, 17.129513035283871 ], [ -96.538020158718609, 17.131424250844987 ], [ -96.536162032478643, 17.134768878076933 ], [ -96.533932280990669, 17.14246682964253 ], [ -96.530640743079871, 17.150058602565842 ], [ -96.527986277022762, 17.154995909432053 ], [ -96.528517170234181, 17.156004606533752 ], [ -96.529897492583885, 17.15706639295659 ], [ -96.529207331409026, 17.157862732773722 ], [ -96.529578956657019, 17.159402323086841 ], [ -96.52734920516906, 17.161632074574808 ], [ -96.526287418746222, 17.162109878465085 ], [ -96.522199541018281, 17.172249938803215 ], [ -96.522411898302849, 17.173205546583773 ], [ -96.522518076945133, 17.175063672823743 ], [ -96.522199541018281, 17.17554147671402 ], [ -96.523739131331411, 17.182336909820201 ], [ -96.523048970156566, 17.183027070995045 ], [ -96.523845309973694, 17.188495271072675 ], [ -96.523420595404559, 17.189238521568665 ], [ -96.525703436213661, 17.19428200707716 ], [ -96.526287418746222, 17.194706721646295 ], [ -96.528304812949614, 17.200971261541056 ], [ -96.529101152766742, 17.201130529504482 ], [ -96.528835706161033, 17.202510851854175 ], [ -96.529685135299303, 17.202829387781026 ], [ -96.531330904254716, 17.207554337362669 ], [ -96.531330904254716, 17.208987749033504 ], [ -96.531755618823851, 17.209518642244923 ], [ -96.531437082897, 17.210898964594616 ], [ -96.532339601356412, 17.211960751017457 ], [ -96.531649440181567, 17.213712698615144 ], [ -96.532498869319838, 17.215146110285978 ], [ -96.532605047962122, 17.216473343314529 ], [ -96.532976673210129, 17.219233988013915 ], [ -96.535471871303798, 17.221039024932747 ], [ -96.536321300442069, 17.221941543392159 ], [ -96.536268211120927, 17.222737883209291 ], [ -96.537011461616913, 17.222950240493859 ], [ -96.537595444149474, 17.224065116237842 ], [ -96.53902885582032, 17.224330562843551 ], [ -96.540037552922016, 17.226507225010376 ], [ -96.540302999527725, 17.227197386185221 ], [ -96.539984463600874, 17.227728279396644 ], [ -96.540356088848867, 17.23022347749032 ], [ -96.539453570389455, 17.23096672798631 ], [ -96.519438896318903, 17.237974518377058 ], [ -96.516465894334942, 17.237868339734774 ], [ -96.508449406842487, 17.242540199995272 ], [ -96.501176169846033, 17.250397419524294 ], [ -96.498096989219789, 17.252520992369977 ], [ -96.496079595016397, 17.255918708923065 ], [ -96.494009111491849, 17.264519178948078 ], [ -96.493956022170707, 17.269721932419998 ], [ -96.490505216296484, 17.272217130513674 ], [ -96.490452126975342, 17.281932476282666 ], [ -96.48493083757657, 17.28649815790088 ], [ -96.478825565645224, 17.29366521625505 ] ] ] ] } }
]
}
