{
"type": "FeatureCollection",
"name": "mayab_points",
"crs": { "type": "name", "properties": { "name": "urn:ogc:def:crs:OGC:1.3:CRS84" } },
"features": [
{ "type": "Feature", "properties": { "CVEGEO": "310010008", "NOM_ENT": "Yucatán", "NOM_MUN": "Abalá", "NOMGEO": "Peba", "CVE_AGEB": "0075", "POB1": 239.0, "POB2": 9.0, "POB2_R": 3.8, "POB4": 8.0, "POB4_R": 3.3, "POB5": 24.0, "POB5_R": 10.0, "POB6": 27.0, "POB6_R": 11.3, "POB7": 10.0, "POB7_R": 4.2, "POB8": 51.0, "POB8_R": 21.3, "POB9": 11.0, "POB9_R": 4.6, "POB10": 43.0, "POB10_R": 18.0, "POB11": 59.0, "POB11_R": 24.7, "POB12": 159.0, "POB12_R": 66.5, "POB13": 32.0, "POB13_R": 13.4, "POB14": 60.0, "POB14_R": 25.1, "POB15": 25.0, "POB15_R": 10.5, "POB17": 230.0, "POB17_R": 96.2, "POB18": 224.0, "POB18_R": 93.7, "POB19": 198.0, "POB19_R": 82.8, "POB20": 188.0, "POB20_R": 78.7, "POB21": 177.0, "POB21_R": 74.1, "POB22": 145.0, "POB22_R": 60.7, "POB23": 44.0, "POB23_R": 18.4, "POB24": 29.0, "POB24_R": 12.1, "POB25": 16.0, "POB25_R": 6.7, "POB42": 116.0, "POB42_R": 48.5, "POB43": 4.0, "POB43_R": 1.7, "POB45": 5.0, "POB45_R": 2.1, "POB46": 10.0, "POB46_R": 4.2, "POB47": 11.0, "POB47_R": 4.6, "POB48": 3.0, "POB48_R": 1.3, "POB49": 22.0, "POB49_R": 9.2, "POB50": 7.0, "POB50_R": 2.9, "POB51": 23.0, "POB51_R": 9.6, "POB52": 29.0, "POB52_R": 12.1, "POB53": 61.0, "POB53_R": 25.5, "POB54": 83.0, "POB54_R": 34.7, "POB55": 16.0, "POB55_R": 6.7, "POB56": 32.0, "POB56_R": 13.4, "POB57": 15.0, "POB57_R": 6.3, "POB59": 112.0, "POB59_R": 46.9, "POB60": 109.0, "POB60_R": 45.6, "POB61": 97.0, "POB61_R": 40.6, "POB62": 94.0, "POB62_R": 39.3, "POB63": 87.0, "POB63_R": 36.4, "POB64": 71.0, "POB64_R": 29.7, "POB65": 18.0, "POB65_R": 7.5, "POB66": 11.0, "POB66_R": 4.6, "POB67": 8.0, "POB67_R": 3.3, "POB84": 123.0, "POB84_R": 51.5, "POB85": 5.0, "POB85_R": 2.1, "POB87": 3.0, "POB87_R": 1.3, "POB88": 14.0, "POB88_R": 5.9, "POB89": 16.0, "POB89_R": 6.7, "POB90": 7.0, "POB90_R": 2.9, "POB91": 29.0, "POB91_R": 12.1, "POB92": 4.0, "POB92_R": 1.7, "POB93": 20.0, "POB93_R": 8.4, "POB94": 30.0, "POB94_R": 12.6, "POB95": 76.0, "POB95_R": 31.8, "POB96": 16.0, "POB96_R": 6.7, "POB97": 28.0, "POB97_R": 11.7, "POB98": 10.0, "POB98_R": 4.2, "POB100": 118.0, "POB100_R": 49.4, "POB101": 115.0, "POB101_R": 48.1, "POB102": 101.0, "POB102_R": 42.3, "POB103": 94.0, "POB103_R": 39.3, "POB104": 90.0, "POB104_R": 37.7, "POB105": 74.0, "POB105_R": 31.0, "POB106": 26.0, "POB106_R": 10.9, "POB107": 18.0, "POB107_R": 7.5, "POB108": 8.0, "POB108_R": 3.3, "POB125_R": 106.0, "POB126_R": 50.3, "POB127_R": 32.1, "POB128_R": 18.2, "POB129_R": 33.0, "POB130_R": 33.0, "POB131_R": 32.0, "POB132_R": 86.3, "POB133_R": 81.8, "POB134_R": 89.7, "POB3": 15.0, "POB3_R": 6.3, "POB16": 15.0, "POB16_R": 6.3, "POB26": 17.0, "POB26_R": 7.1, "POB27": 19.0, "POB27_R": 7.9, "POB28": 18.0, "POB28_R": 7.5, "POB29": 25.0, "POB29_R": 10.5, "POB30": 16.0, "POB30_R": 6.7, "POB31": 18.0, "POB31_R": 7.5, "POB32": 14.0, "POB32_R": 5.9, "POB33": 16.0, "POB33_R": 6.7, "POB34": 12.0, "POB34_R": 5.0, "POB35": 11.0, "POB35_R": 4.6, "POB36": 14.0, "POB36_R": 5.9, "POB37": 13.0, "POB37_R": 5.4, "POB38": 7.0, "POB38_R": 2.9, "POB39": 6.0, "POB39_R": 2.5, "POB40": 2.0, "POB40_R": 0.8, "POB41": 1.0, "POB41_R": 0.4, "POB44": 7.0, "POB44_R": 2.9, "POB58": 7.0, "POB58_R": 2.9, "POB68": 8.0, "POB68_R": 3.3, "POB69": 7.0, "POB69_R": 2.9, "POB70": 11.0, "POB70_R": 4.6, "POB71": 12.0, "POB71_R": 5.0, "POB72": 6.0, "POB72_R": 2.5, "POB73": 12.0, "POB73_R": 5.0, "POB74": 6.0, "POB74_R": 2.5, "POB75": 9.0, "POB75_R": 3.8, "POB76": 5.0, "POB76_R": 2.1, "POB77": 6.0, "POB77_R": 2.5, "POB78": 9.0, "POB78_R": 3.8, "POB79": 3.0, "POB79_R": 1.3, "POB80": 4.0, "POB80_R": 1.7, "POB81": 3.0, "POB81_R": 1.3, "POB82": 1.0, "POB82_R": 0.4, "POB83": 0.0, "POB83_R": 0.0, "POB86": 8.0, "POB86_R": 3.3, "POB99": 8.0, "POB99_R": 3.3, "POB109": 9.0, "POB109_R": 3.8, "POB110": 12.0, "POB110_R": 5.0, "POB111": 7.0, "POB111_R": 2.9, "POB112": 13.0, "POB112_R": 5.4, "POB113": 10.0, "POB113_R": 4.2, "POB114": 6.0, "POB114_R": 2.5, "POB115": 8.0, "POB115_R": 3.3, "POB116": 7.0, "POB116_R": 2.9, "POB117": 7.0, "POB117_R": 2.9, "POB118": 5.0, "POB118_R": 2.1, "POB119": 5.0, "POB119_R": 2.1, "POB120": 10.0, "POB120_R": 4.2, "POB121": 3.0, "POB121_R": 1.3, "POB122": 3.0, "POB122_R": 1.3, "POB123": 1.0, "POB123_R": 0.4, "POB124": 1.0, "POB124_R": 0.4, "OID": 6 }, "geometry": { "type": "Point", "coordinates": [ -89.686907499913062, 20.719429444091546 ] } },
{ "type": "Feature", "properties": { "CVEGEO": "310010009", "NOM_ENT": "Yucatán", "NOM_MUN": "Abalá", "NOMGEO": "Cacao", "CVE_AGEB": "0075", "POB1": 220.0, "POB2": 11.0, "POB2_R": 5.0, "POB4": 7.0, "POB4_R": 3.2, "POB5": 30.0, "POB5_R": 13.6, "POB6": 43.0, "POB6_R": 19.5, "POB7": 19.0, "POB7_R": 8.6, "POB8": 67.0, "POB8_R": 30.5, "POB9": 10.0, "POB9_R": 4.5, "POB10": 32.0, "POB10_R": 14.5, "POB11": 50.0, "POB11_R": 22.7, "POB12": 132.0, "POB12_R": 60.0, "POB13": 22.0, "POB13_R": 10.0, "POB14": 61.0, "POB14_R": 27.7, "POB15": 14.0, "POB15_R": 6.4, "POB17": 209.0, "POB17_R": 95.0, "POB18": 204.0, "POB18_R": 92.7, "POB19": 172.0, "POB19_R": 78.2, "POB20": 153.0, "POB20_R": 69.5, "POB21": 143.0, "POB21_R": 65.0, "POB22": 121.0, "POB22_R": 55.0, "POB23": 28.0, "POB23_R": 12.7, "POB24": 21.0, "POB24_R": 9.5, "POB25": 15.0, "POB25_R": 6.8, "POB42": 111.0, "POB42_R": 50.5, "POB43": 6.0, "POB43_R": 2.7, "POB45": 3.0, "POB45_R": 1.4, "POB46": 15.0, "POB46_R": 6.8, "POB47": 21.0, "POB47_R": 9.5, "POB48": 9.0, "POB48_R": 4.1, "POB49": 33.0, "POB49_R": 15.0, "POB50": 5.0, "POB50_R": 2.3, "POB51": 17.0, "POB51_R": 7.7, "POB52": 27.0, "POB52_R": 12.3, "POB53": 52.0, "POB53_R": 23.6, "POB54": 65.0, "POB54_R": 29.5, "POB55": 12.0, "POB55_R": 5.5, "POB56": 25.0, "POB56_R": 11.4, "POB57": 10.0, "POB57_R": 4.5, "POB59": 105.0, "POB59_R": 47.7, "POB60": 102.0, "POB60_R": 46.4, "POB61": 87.0, "POB61_R": 39.5, "POB62": 78.0, "POB62_R": 35.5, "POB63": 73.0, "POB63_R": 33.2, "POB64": 61.0, "POB64_R": 27.7, "POB65": 16.0, "POB65_R": 7.3, "POB66": 13.0, "POB66_R": 5.9, "POB67": 9.0, "POB67_R": 4.1, "POB84": 109.0, "POB84_R": 49.5, "POB85": 5.0, "POB85_R": 2.3, "POB87": 4.0, "POB87_R": 1.8, "POB88": 15.0, "POB88_R": 6.8, "POB89": 22.0, "POB89_R": 10.0, "POB90": 10.0, "POB90_R": 4.5, "POB91": 34.0, "POB91_R": 15.5, "POB92": 5.0, "POB92_R": 2.3, "POB93": 15.0, "POB93_R": 6.8, "POB94": 23.0, "POB94_R": 10.5, "POB95": 67.0, "POB95_R": 30.5, "POB96": 10.0, "POB96_R": 4.5, "POB97": 36.0, "POB97_R": 16.4, "POB98": 4.0, "POB98_R": 1.8, "POB100": 104.0, "POB100_R": 47.3, "POB101": 102.0, "POB101_R": 46.4, "POB102": 85.0, "POB102_R": 38.6, "POB103": 75.0, "POB103_R": 34.1, "POB104": 70.0, "POB104_R": 31.8, "POB105": 60.0, "POB105_R": 27.3, "POB106": 12.0, "POB106_R": 5.5, "POB107": 8.0, "POB107_R": 3.6, "POB108": 6.0, "POB108_R": 2.7, "POB125_R": 98.2, "POB126_R": 66.7, "POB127_R": 50.8, "POB128_R": 15.9, "POB129_R": 28.0, "POB130_R": 28.0, "POB131_R": 28.0, "POB132_R": 41.8, "POB133_R": 48.5, "POB134_R": 35.3, "POB3": 16.0, "POB3_R": 7.3, "POB16": 7.0, "POB16_R": 3.2, "POB26": 22.0, "POB26_R": 10.0, "POB27": 29.0, "POB27_R": 13.2, "POB28": 16.0, "POB28_R": 7.3, "POB29": 16.0, "POB29_R": 7.3, "POB30": 18.0, "POB30_R": 8.2, "POB31": 15.0, "POB31_R": 6.8, "POB32": 13.0, "POB32_R": 5.9, "POB33": 20.0, "POB33_R": 9.1, "POB34": 13.0, "POB34_R": 5.9, "POB35": 9.0, "POB35_R": 4.1, "POB36": 5.0, "POB36_R": 2.3, "POB37": 6.0, "POB37_R": 2.7, "POB38": 5.0, "POB38_R": 2.3, "POB39": 6.0, "POB39_R": 2.7, "POB40": 2.0, "POB40_R": 0.9, "POB41": 2.0, "POB41_R": 0.9, "POB44": 9.0, "POB44_R": 4.1, "POB58": 3.0, "POB58_R": 1.4, "POB68": 10.0, "POB68_R": 4.5, "POB69": 14.0, "POB69_R": 6.4, "POB70": 9.0, "POB70_R": 4.1, "POB71": 8.0, "POB71_R": 3.6, "POB72": 10.0, "POB72_R": 4.5, "POB73": 5.0, "POB73_R": 2.3, "POB74": 9.0, "POB74_R": 4.1, "POB75": 8.0, "POB75_R": 3.6, "POB76": 3.0, "POB76_R": 1.4, "POB77": 7.0, "POB77_R": 3.2, "POB78": 3.0, "POB78_R": 1.4, "POB79": 4.0, "POB79_R": 1.8, "POB80": 3.0, "POB80_R": 1.4, "POB81": 3.0, "POB81_R": 1.4, "POB82": 1.0, "POB82_R": 0.5, "POB83": 2.0, "POB83_R": 0.9, "POB86": 7.0, "POB86_R": 3.2, "POB99": 4.0, "POB99_R": 1.8, "POB109": 12.0, "POB109_R": 5.5, "POB110": 15.0, "POB110_R": 6.8, "POB111": 7.0, "POB111_R": 3.2, "POB112": 8.0, "POB112_R": 3.6, "POB113": 8.0, "POB113_R": 3.6, "POB114": 10.0, "POB114_R": 4.5, "POB115": 4.0, "POB115_R": 1.8, "POB116": 12.0, "POB116_R": 5.5, "POB117": 10.0, "POB117_R": 4.5, "POB118": 2.0, "POB118_R": 0.9, "POB119": 2.0, "POB119_R": 0.9, "POB120": 2.0, "POB120_R": 0.9, "POB121": 2.0, "POB121_R": 0.9, "POB122": 3.0, "POB122_R": 1.4, "POB123": 1.0, "POB123_R": 0.5, "POB124": 0.0, "POB124_R": 0.0, "OID": 7 }, "geometry": { "type": "Point", "coordinates": [ -89.74753138903074, 20.692983610834336 ] } },
{ "type": "Feature", "properties": { "CVEGEO": "310500133", "NOM_ENT": "Yucatán", "NOM_MUN": "Mérida", "NOMGEO": "San Antonio Tzacalá", "CVE_AGEB": "2061", "POB1": 715.0, "POB2": 30.0, "POB2_R": 4.2, "POB4": 37.0, "POB4_R": 5.2, "POB5": 69.0, "POB5_R": 9.7, "POB6": 79.0, "POB6_R": 11.0, "POB7": 32.0, "POB7_R": 4.5, "POB8": 168.0, "POB8_R": 23.5, "POB9": 28.0, "POB9_R": 3.9, "POB10": 108.0, "POB10_R": 15.1, "POB11": 165.0, "POB11_R": 23.1, "POB12": 463.0, "POB12_R": 64.8, "POB13": 80.0, "POB13_R": 11.2, "POB14": 210.0, "POB14_R": 29.4, "POB15": 62.0, "POB15_R": 8.7, "POB17": 685.0, "POB17_R": 95.8, "POB18": 659.0, "POB18_R": 92.2, "POB19": 579.0, "POB19_R": 81.0, "POB20": 547.0, "POB20_R": 76.5, "POB21": 519.0, "POB21_R": 72.6, "POB22": 439.0, "POB22_R": 61.4, "POB23": 110.0, "POB23_R": 15.4, "POB24": 84.0, "POB24_R": 11.7, "POB25": 55.0, "POB25_R": 7.7, "POB42": 358.0, "POB42_R": 50.1, "POB43": 14.0, "POB43_R": 2.0, "POB45": 15.0, "POB45_R": 2.1, "POB46": 33.0, "POB46_R": 4.6, "POB47": 45.0, "POB47_R": 6.3, "POB48": 23.0, "POB48_R": 3.2, "POB49": 85.0, "POB49_R": 11.9, "POB50": 14.0, "POB50_R": 2.0, "POB51": 46.0, "POB51_R": 6.4, "POB52": 80.0, "POB52_R": 11.2, "POB53": 192.0, "POB53_R": 26.9, "POB54": 233.0, "POB54_R": 32.6, "POB55": 32.0, "POB55_R": 4.5, "POB56": 112.0, "POB56_R": 15.7, "POB57": 28.0, "POB57_R": 3.9, "POB59": 344.0, "POB59_R": 48.1, "POB60": 335.0, "POB60_R": 46.9, "POB61": 296.0, "POB61_R": 41.4, "POB62": 273.0, "POB62_R": 38.2, "POB63": 259.0, "POB63_R": 36.2, "POB64": 227.0, "POB64_R": 31.7, "POB65": 53.0, "POB65_R": 7.4, "POB66": 40.0, "POB66_R": 5.6, "POB67": 25.0, "POB67_R": 3.5, "POB84": 357.0, "POB84_R": 49.9, "POB85": 16.0, "POB85_R": 2.2, "POB87": 22.0, "POB87_R": 3.1, "POB88": 36.0, "POB88_R": 5.0, "POB89": 34.0, "POB89_R": 4.8, "POB90": 9.0, "POB90_R": 1.3, "POB91": 83.0, "POB91_R": 11.6, "POB92": 14.0, "POB92_R": 2.0, "POB93": 62.0, "POB93_R": 8.7, "POB94": 85.0, "POB94_R": 11.9, "POB95": 230.0, "POB95_R": 32.2, "POB96": 48.0, "POB96_R": 6.7, "POB97": 98.0, "POB97_R": 13.7, "POB98": 34.0, "POB98_R": 4.8, "POB100": 341.0, "POB100_R": 47.7, "POB101": 324.0, "POB101_R": 45.3, "POB102": 283.0, "POB102_R": 39.6, "POB103": 274.0, "POB103_R": 38.3, "POB104": 260.0, "POB104_R": 36.4, "POB105": 212.0, "POB105_R": 29.7, "POB106": 57.0, "POB106_R": 8.0, "POB107": 44.0, "POB107_R": 6.2, "POB108": 30.0, "POB108_R": 4.2, "POB125_R": 99.7, "POB126_R": 54.4, "POB127_R": 36.3, "POB128_R": 18.1, "POB129_R": 32.0, "POB130_R": 31.5, "POB131_R": 32.0, "POB132_R": 65.5, "POB133_R": 62.4, "POB134_R": 68.7, "POB3": 56.0, "POB3_R": 7.8, "POB16": 26.0, "POB16_R": 3.6, "POB26": 56.0, "POB26_R": 7.8, "POB27": 56.0, "POB27_R": 7.8, "POB28": 55.0, "POB28_R": 7.7, "POB29": 53.0, "POB29_R": 7.4, "POB30": 57.0, "POB30_R": 8.0, "POB31": 53.0, "POB31_R": 7.4, "POB32": 52.0, "POB32_R": 7.3, "POB33": 60.0, "POB33_R": 8.4, "POB34": 45.0, "POB34_R": 6.3, "POB35": 37.0, "POB35_R": 5.2, "POB36": 25.0, "POB36_R": 3.5, "POB37": 29.0, "POB37_R": 4.1, "POB38": 25.0, "POB38_R": 3.5, "POB39": 12.0, "POB39_R": 1.7, "POB40": 12.0, "POB40_R": 1.7, "POB41": 6.0, "POB41_R": 0.8, "POB44": 23.0, "POB44_R": 3.2, "POB58": 13.0, "POB58_R": 1.8, "POB68": 31.0, "POB68_R": 4.3, "POB69": 31.0, "POB69_R": 4.3, "POB70": 24.0, "POB70_R": 3.4, "POB71": 22.0, "POB71_R": 3.1, "POB72": 34.0, "POB72_R": 4.8, "POB73": 30.0, "POB73_R": 4.2, "POB74": 30.0, "POB74_R": 4.2, "POB75": 29.0, "POB75_R": 4.1, "POB76": 23.0, "POB76_R": 3.2, "POB77": 14.0, "POB77_R": 2.0, "POB78": 14.0, "POB78_R": 2.0, "POB79": 15.0, "POB79_R": 2.1, "POB80": 12.0, "POB80_R": 1.7, "POB81": 6.0, "POB81_R": 0.8, "POB82": 5.0, "POB82_R": 0.7, "POB83": 2.0, "POB83_R": 0.3, "POB86": 33.0, "POB86_R": 4.6, "POB99": 13.0, "POB99_R": 1.8, "POB109": 25.0, "POB109_R": 3.5, "POB110": 25.0, "POB110_R": 3.5, "POB111": 31.0, "POB111_R": 4.3, "POB112": 31.0, "POB112_R": 4.3, "POB113": 23.0, "POB113_R": 3.2, "POB114": 23.0, "POB114_R": 3.2, "POB115": 22.0, "POB115_R": 3.1, "POB116": 31.0, "POB116_R": 4.3, "POB117": 22.0, "POB117_R": 3.1, "POB118": 23.0, "POB118_R": 3.2, "POB119": 11.0, "POB119_R": 1.5, "POB120": 14.0, "POB120_R": 2.0, "POB121": 13.0, "POB121_R": 1.8, "POB122": 6.0, "POB122_R": 0.8, "POB123": 7.0, "POB123_R": 1.0, "POB124": 4.0, "POB124_R": 0.6, "OID": 688 }, "geometry": { "type": "Point", "coordinates": [ -89.654194721837129, 20.750233332982798 ] } },
{ "type": "Feature", "properties": { "CVEGEO": "310760005", "NOM_ENT": "Yucatán", "NOM_MUN": "Tecoh", "NOMGEO": "Lepán", "CVE_AGEB": "0076", "POB1": 1376.0, "POB2": 66.0, "POB2_R": 4.8, "POB4": 71.0, "POB4_R": 5.2, "POB5": 142.0, "POB5_R": 10.3, "POB6": 171.0, "POB6_R": 12.4, "POB7": 72.0, "POB7_R": 5.2, "POB8": 351.0, "POB8_R": 25.5, "POB9": 79.0, "POB9_R": 5.7, "POB10": 250.0, "POB10_R": 18.2, "POB11": 353.0, "POB11_R": 25.7, "POB12": 907.0, "POB12_R": 65.9, "POB13": 171.0, "POB13_R": 12.4, "POB14": 407.0, "POB14_R": 29.6, "POB15": 97.0, "POB15_R": 7.0, "POB17": 1310.0, "POB17_R": 95.2, "POB18": 1256.0, "POB18_R": 91.3, "POB19": 1097.0, "POB19_R": 79.7, "POB20": 1025.0, "POB20_R": 74.5, "POB21": 946.0, "POB21_R": 68.8, "POB22": 775.0, "POB22_R": 56.3, "POB23": 168.0, "POB23_R": 12.2, "POB24": 118.0, "POB24_R": 8.6, "POB25": 73.0, "POB25_R": 5.3, "POB42": 666.0, "POB42_R": 48.4, "POB43": 33.0, "POB43_R": 2.4, "POB45": 34.0, "POB45_R": 2.5, "POB46": 66.0, "POB46_R": 4.8, "POB47": 81.0, "POB47_R": 5.9, "POB48": 36.0, "POB48_R": 2.6, "POB49": 169.0, "POB49_R": 12.3, "POB50": 36.0, "POB50_R": 2.6, "POB51": 114.0, "POB51_R": 8.3, "POB52": 163.0, "POB52_R": 11.8, "POB53": 369.0, "POB53_R": 26.8, "POB54": 442.0, "POB54_R": 32.1, "POB55": 78.0, "POB55_R": 5.7, "POB56": 206.0, "POB56_R": 15.0, "POB57": 47.0, "POB57_R": 3.4, "POB59": 633.0, "POB59_R": 46.0, "POB60": 606.0, "POB60_R": 44.0, "POB61": 533.0, "POB61_R": 38.7, "POB62": 497.0, "POB62_R": 36.1, "POB63": 461.0, "POB63_R": 33.5, "POB64": 383.0, "POB64_R": 27.8, "POB65": 81.0, "POB65_R": 5.9, "POB66": 55.0, "POB66_R": 4.0, "POB67": 35.0, "POB67_R": 2.5, "POB84": 710.0, "POB84_R": 51.6, "POB85": 33.0, "POB85_R": 2.4, "POB87": 37.0, "POB87_R": 2.7, "POB88": 76.0, "POB88_R": 5.5, "POB89": 90.0, "POB89_R": 6.5, "POB90": 36.0, "POB90_R": 2.6, "POB91": 182.0, "POB91_R": 13.2, "POB92": 43.0, "POB92_R": 3.1, "POB93": 136.0, "POB93_R": 9.9, "POB94": 190.0, "POB94_R": 13.8, "POB95": 465.0, "POB95_R": 33.8, "POB96": 93.0, "POB96_R": 6.8, "POB97": 201.0, "POB97_R": 14.6, "POB98": 50.0, "POB98_R": 3.6, "POB100": 677.0, "POB100_R": 49.2, "POB101": 650.0, "POB101_R": 47.2, "POB102": 564.0, "POB102_R": 41.0, "POB103": 528.0, "POB103_R": 38.4, "POB104": 485.0, "POB104_R": 35.2, "POB105": 392.0, "POB105_R": 28.5, "POB106": 87.0, "POB106_R": 6.3, "POB107": 63.0, "POB107_R": 4.6, "POB108": 38.0, "POB108_R": 2.8, "POB125_R": 106.6, "POB126_R": 51.7, "POB127_R": 38.7, "POB128_R": 13.0, "POB129_R": 29.0, "POB130_R": 30.0, "POB131_R": 28.0, "POB132_R": 47.9, "POB133_R": 47.9, "POB134_R": 47.8, "POB3": 120.0, "POB3_R": 8.7, "POB16": 50.0, "POB16_R": 3.6, "POB26": 105.0, "POB26_R": 7.6, "POB27": 126.0, "POB27_R": 9.2, "POB28": 125.0, "POB28_R": 9.1, "POB29": 125.0, "POB29_R": 9.1, "POB30": 103.0, "POB30_R": 7.5, "POB31": 97.0, "POB31_R": 7.0, "POB32": 115.0, "POB32_R": 8.4, "POB33": 113.0, "POB33_R": 8.2, "POB34": 82.0, "POB34_R": 6.0, "POB35": 48.0, "POB35_R": 3.5, "POB36": 49.0, "POB36_R": 3.6, "POB37": 45.0, "POB37_R": 3.3, "POB38": 26.0, "POB38_R": 1.9, "POB39": 21.0, "POB39_R": 1.5, "POB40": 16.0, "POB40_R": 1.2, "POB41": 10.0, "POB41_R": 0.7, "POB44": 60.0, "POB44_R": 4.4, "POB58": 26.0, "POB58_R": 1.9, "POB68": 49.0, "POB68_R": 3.6, "POB69": 60.0, "POB69_R": 4.4, "POB70": 62.0, "POB70_R": 4.5, "POB71": 52.0, "POB71_R": 3.8, "POB72": 49.0, "POB72_R": 3.6, "POB73": 55.0, "POB73_R": 4.0, "POB74": 59.0, "POB74_R": 4.3, "POB75": 46.0, "POB75_R": 3.3, "POB76": 46.0, "POB76_R": 3.3, "POB77": 23.0, "POB77_R": 1.7, "POB78": 24.0, "POB78_R": 1.7, "POB79": 20.0, "POB79_R": 1.5, "POB80": 16.0, "POB80_R": 1.2, "POB81": 9.0, "POB81_R": 0.7, "POB82": 6.0, "POB82_R": 0.4, "POB83": 4.0, "POB83_R": 0.3, "POB86": 60.0, "POB86_R": 4.4, "POB99": 24.0, "POB99_R": 1.7, "POB109": 56.0, "POB109_R": 4.1, "POB110": 66.0, "POB110_R": 4.8, "POB111": 63.0, "POB111_R": 4.6, "POB112": 73.0, "POB112_R": 5.3, "POB113": 54.0, "POB113_R": 3.9, "POB114": 42.0, "POB114_R": 3.1, "POB115": 56.0, "POB115_R": 4.1, "POB116": 67.0, "POB116_R": 4.9, "POB117": 36.0, "POB117_R": 2.6, "POB118": 25.0, "POB118_R": 1.8, "POB119": 25.0, "POB119_R": 1.8, "POB120": 25.0, "POB120_R": 1.8, "POB121": 10.0, "POB121_R": 0.7, "POB122": 12.0, "POB122_R": 0.9, "POB123": 10.0, "POB123_R": 0.7, "POB124": 6.0, "POB124_R": 0.4, "OID": 1271 }, "geometry": { "type": "Point", "coordinates": [ -89.498188055562167, 20.712622499578476 ] } },
{ "type": "Feature", "properties": { "CVEGEO": "310760013", "NOM_ENT": "Yucatán", "NOM_MUN": "Tecoh", "NOMGEO": "X-Kanchakán", "CVE_AGEB": "0076", "POB1": 1786.0, "POB2": 94.0, "POB2_R": 5.3, "POB4": 120.0, "POB4_R": 6.7, "POB5": 206.0, "POB5_R": 11.5, "POB6": 237.0, "POB6_R": 13.3, "POB7": 102.0, "POB7_R": 5.7, "POB8": 522.0, "POB8_R": 29.2, "POB9": 107.0, "POB9_R": 6.0, "POB10": 357.0, "POB10_R": 20.0, "POB11": 506.0, "POB11_R": 28.3, "POB12": 1118.0, "POB12_R": 62.6, "POB13": 250.0, "POB13_R": 14.0, "POB14": 449.0, "POB14_R": 25.1, "POB15": 117.0, "POB15_R": 6.6, "POB17": 1692.0, "POB17_R": 94.7, "POB18": 1610.0, "POB18_R": 90.1, "POB19": 1366.0, "POB19_R": 76.5, "POB20": 1264.0, "POB20_R": 70.8, "POB21": 1157.0, "POB21_R": 64.8, "POB22": 907.0, "POB22_R": 50.8, "POB23": 192.0, "POB23_R": 10.8, "POB24": 146.0, "POB24_R": 8.2, "POB25": 84.0, "POB25_R": 4.7, "POB42": 827.0, "POB42_R": 46.3, "POB43": 50.0, "POB43_R": 2.8, "POB45": 57.0, "POB45_R": 3.2, "POB46": 102.0, "POB46_R": 5.7, "POB47": 108.0, "POB47_R": 6.0, "POB48": 41.0, "POB48_R": 2.3, "POB49": 250.0, "POB49_R": 14.0, "POB50": 41.0, "POB50_R": 2.3, "POB51": 146.0, "POB51_R": 8.2, "POB52": 217.0, "POB52_R": 12.2, "POB53": 430.0, "POB53_R": 24.1, "POB54": 511.0, "POB54_R": 28.6, "POB55": 105.0, "POB55_R": 5.9, "POB56": 213.0, "POB56_R": 11.9, "POB57": 60.0, "POB57_R": 3.4, "POB59": 777.0, "POB59_R": 43.5, "POB60": 733.0, "POB60_R": 41.0, "POB61": 618.0, "POB61_R": 34.6, "POB62": 577.0, "POB62_R": 32.3, "POB63": 536.0, "POB63_R": 30.0, "POB64": 431.0, "POB64_R": 24.1, "POB65": 87.0, "POB65_R": 4.9, "POB66": 66.0, "POB66_R": 3.7, "POB67": 38.0, "POB67_R": 2.1, "POB84": 959.0, "POB84_R": 53.7, "POB85": 44.0, "POB85_R": 2.5, "POB87": 63.0, "POB87_R": 3.5, "POB88": 104.0, "POB88_R": 5.8, "POB89": 129.0, "POB89_R": 7.2, "POB90": 61.0, "POB90_R": 3.4, "POB91": 272.0, "POB91_R": 15.2, "POB92": 66.0, "POB92_R": 3.7, "POB93": 211.0, "POB93_R": 11.8, "POB94": 289.0, "POB94_R": 16.2, "POB95": 607.0, "POB95_R": 34.0, "POB96": 145.0, "POB96_R": 8.1, "POB97": 236.0, "POB97_R": 13.2, "POB98": 57.0, "POB98_R": 3.2, "POB100": 915.0, "POB100_R": 51.2, "POB101": 877.0, "POB101_R": 49.1, "POB102": 748.0, "POB102_R": 41.9, "POB103": 687.0, "POB103_R": 38.5, "POB104": 621.0, "POB104_R": 34.8, "POB105": 476.0, "POB105_R": 26.7, "POB106": 105.0, "POB106_R": 5.9, "POB107": 80.0, "POB107_R": 4.5, "POB108": 46.0, "POB108_R": 2.6, "POB125_R": 116.0, "POB126_R": 59.7, "POB127_R": 46.7, "POB128_R": 13.1, "POB129_R": 25.0, "POB130_R": 26.0, "POB131_R": 24.0, "POB132_R": 36.8, "POB133_R": 34.8, "POB134_R": 38.6, "POB3": 176.0, "POB3_R": 9.9, "POB16": 46.0, "POB16_R": 2.6, "POB26": 168.0, "POB26_R": 9.4, "POB27": 178.0, "POB27_R": 10.0, "POB28": 184.0, "POB28_R": 10.3, "POB29": 173.0, "POB29_R": 9.7, "POB30": 149.0, "POB30_R": 8.3, "POB31": 149.0, "POB31_R": 8.3, "POB32": 116.0, "POB32_R": 6.5, "POB33": 106.0, "POB33_R": 5.9, "POB34": 78.0, "POB34_R": 4.4, "POB35": 66.0, "POB35_R": 3.7, "POB36": 51.0, "POB36_R": 2.9, "POB37": 62.0, "POB37_R": 3.5, "POB38": 37.0, "POB38_R": 2.1, "POB39": 20.0, "POB39_R": 1.1, "POB40": 18.0, "POB40_R": 1.0, "POB41": 9.0, "POB41_R": 0.5, "POB44": 94.0, "POB44_R": 5.3, "POB58": 21.0, "POB58_R": 1.2, "POB68": 73.0, "POB68_R": 4.1, "POB69": 83.0, "POB69_R": 4.6, "POB70": 78.0, "POB70_R": 4.4, "POB71": 68.0, "POB71_R": 3.8, "POB72": 71.0, "POB72_R": 4.0, "POB73": 79.0, "POB73_R": 4.4, "POB74": 51.0, "POB74_R": 2.9, "POB75": 50.0, "POB75_R": 2.8, "POB76": 33.0, "POB76_R": 1.8, "POB77": 32.0, "POB77_R": 1.8, "POB78": 28.0, "POB78_R": 1.6, "POB79": 28.0, "POB79_R": 1.6, "POB80": 16.0, "POB80_R": 0.9, "POB81": 8.0, "POB81_R": 0.4, "POB82": 9.0, "POB82_R": 0.5, "POB83": 5.0, "POB83_R": 0.3, "POB86": 82.0, "POB86_R": 4.6, "POB99": 25.0, "POB99_R": 1.4, "POB109": 95.0, "POB109_R": 5.3, "POB110": 95.0, "POB110_R": 5.3, "POB111": 106.0, "POB111_R": 5.9, "POB112": 105.0, "POB112_R": 5.9, "POB113": 78.0, "POB113_R": 4.4, "POB114": 70.0, "POB114_R": 3.9, "POB115": 65.0, "POB115_R": 3.6, "POB116": 56.0, "POB116_R": 3.1, "POB117": 45.0, "POB117_R": 2.5, "POB118": 34.0, "POB118_R": 1.9, "POB119": 23.0, "POB119_R": 1.3, "POB120": 34.0, "POB120_R": 1.9, "POB121": 21.0, "POB121_R": 1.2, "POB122": 12.0, "POB122_R": 0.7, "POB123": 9.0, "POB123_R": 0.5, "POB124": 4.0, "POB124_R": 0.2, "OID": 1279 }, "geometry": { "type": "Point", "coordinates": [ -89.501361944611617, 20.625269444042665 ] } },
{ "type": "Feature", "properties": { "CVEGEO": "311010013", "NOM_ENT": "Yucatán", "NOM_MUN": "Umán", "NOMGEO": "San Antonio Mulix", "CVE_AGEB": "0155", "POB1": 41.0, "POB2": 3.0, "POB2_R": 7.3, "POB4": 1.0, "POB4_R": 2.4, "POB5": 6.0, "POB5_R": 14.6, "POB6": 8.0, "POB6_R": 19.5, "POB7": 3.0, "POB7_R": 7.3, "POB8": 13.0, "POB8_R": 31.7, "POB9": 1.0, "POB9_R": 2.4, "POB10": 7.0, "POB10_R": 17.1, "POB11": 9.0, "POB11_R": 22.0, "POB12": 24.0, "POB12_R": 58.5, "POB13": 6.0, "POB13_R": 14.6, "POB14": 11.0, "POB14_R": 26.8, "POB15": 3.0, "POB15_R": 7.3, "POB17": 38.0, "POB17_R": 92.7, "POB18": 37.0, "POB18_R": 90.2, "POB19": 31.0, "POB19_R": 75.6, "POB20": 28.0, "POB20_R": 68.3, "POB21": 27.0, "POB21_R": 65.9, "POB22": 21.0, "POB22_R": 51.2, "POB23": 5.0, "POB23_R": 12.2, "POB24": 4.0, "POB24_R": 9.8, "POB25": 4.0, "POB25_R": 9.8, "POB42": 21.0, "POB42_R": 51.2, "POB43": 3.0, "POB43_R": 7.3, "POB45": 1.0, "POB45_R": 2.4, "POB46": 4.0, "POB46_R": 9.8, "POB47": 4.0, "POB47_R": 9.8, "POB48": 1.0, "POB48_R": 2.4, "POB49": 9.0, "POB49_R": 22.0, "POB50": 0.0, "POB50_R": 0.0, "POB51": 2.0, "POB51_R": 4.9, "POB52": 3.0, "POB52_R": 7.3, "POB53": 8.0, "POB53_R": 19.5, "POB54": 10.0, "POB54_R": 24.4, "POB55": 2.0, "POB55_R": 4.9, "POB56": 5.0, "POB56_R": 12.2, "POB57": 2.0, "POB57_R": 4.9, "POB59": 18.0, "POB59_R": 43.9, "POB60": 17.0, "POB60_R": 41.5, "POB61": 13.0, "POB61_R": 31.7, "POB62": 12.0, "POB62_R": 29.3, "POB63": 12.0, "POB63_R": 29.3, "POB64": 10.0, "POB64_R": 24.4, "POB65": 2.0, "POB65_R": 4.9, "POB66": 2.0, "POB66_R": 4.9, "POB67": 2.0, "POB67_R": 4.9, "POB84": 20.0, "POB84_R": 48.8, "POB85": 0.0, "POB85_R": 0.0, "POB87": 0.0, "POB87_R": 0.0, "POB88": 2.0, "POB88_R": 4.9, "POB89": 4.0, "POB89_R": 9.8, "POB90": 2.0, "POB90_R": 4.9, "POB91": 4.0, "POB91_R": 9.8, "POB92": 1.0, "POB92_R": 2.4, "POB93": 5.0, "POB93_R": 12.2, "POB94": 6.0, "POB94_R": 14.6, "POB95": 14.0, "POB95_R": 34.1, "POB96": 4.0, "POB96_R": 9.8, "POB97": 6.0, "POB97_R": 14.6, "POB98": 1.0, "POB98_R": 2.4, "POB100": 20.0, "POB100_R": 48.8, "POB101": 20.0, "POB101_R": 48.8, "POB102": 18.0, "POB102_R": 43.9, "POB103": 16.0, "POB103_R": 39.0, "POB104": 15.0, "POB104_R": 36.6, "POB105": 11.0, "POB105_R": 26.8, "POB106": 3.0, "POB106_R": 7.3, "POB107": 2.0, "POB107_R": 4.9, "POB108": 2.0, "POB108_R": 4.9, "POB125_R": 95.2, "POB126_R": 70.8, "POB127_R": 54.2, "POB128_R": 16.7, "POB129_R": 26.0, "POB130_R": 21.0, "POB131_R": 29.0, "POB132_R": 38.5, "POB133_R": 22.2, "POB134_R": 75.0, "POB3": 4.0, "POB3_R": 9.8, "POB16": 1.0, "POB16_R": 2.4, "POB26": 5.0, "POB26_R": 12.2, "POB27": 4.0, "POB27_R": 9.8, "POB28": 1.0, "POB28_R": 2.4, "POB29": 6.0, "POB29_R": 14.6, "POB30": 2.0, "POB30_R": 4.9, "POB31": 6.0, "POB31_R": 14.6, "POB32": 2.0, "POB32_R": 4.9, "POB33": 1.0, "POB33_R": 2.4, "POB34": 2.0, "POB34_R": 4.9, "POB35": 3.0, "POB35_R": 7.3, "POB36": 0.0, "POB36_R": 0.0, "POB37": 0.0, "POB37_R": 0.0, "POB38": 2.0, "POB38_R": 4.9, "POB39": 2.0, "POB39_R": 4.9, "POB40": 0.0, "POB40_R": 0.0, "POB41": 0.0, "POB41_R": 0.0, "POB44": 4.0, "POB44_R": 9.8, "POB58": 0.0, "POB58_R": 0.0, "POB68": 3.0, "POB68_R": 7.3, "POB69": 2.0, "POB69_R": 4.9, "POB70": 0.0, "POB70_R": 0.0, "POB71": 2.0, "POB71_R": 4.9, "POB72": 1.0, "POB72_R": 2.4, "POB73": 4.0, "POB73_R": 9.8, "POB74": 0.0, "POB74_R": 0.0, "POB75": 0.0, "POB75_R": 0.0, "POB76": 1.0, "POB76_R": 2.4, "POB77": 2.0, "POB77_R": 4.9, "POB78": 0.0, "POB78_R": 0.0, "POB79": 0.0, "POB79_R": 0.0, "POB80": 1.0, "POB80_R": 2.4, "POB81": 1.0, "POB81_R": 2.4, "POB82": 0.0, "POB82_R": 0.0, "POB83": 0.0, "POB83_R": 0.0, "POB86": 0.0, "POB86_R": 0.0, "POB99": 1.0, "POB99_R": 2.4, "POB109": 2.0, "POB109_R": 4.9, "POB110": 2.0, "POB110_R": 4.9, "POB111": 1.0, "POB111_R": 2.4, "POB112": 4.0, "POB112_R": 9.8, "POB113": 1.0, "POB113_R": 2.4, "POB114": 2.0, "POB114_R": 4.9, "POB115": 2.0, "POB115_R": 4.9, "POB116": 1.0, "POB116_R": 2.4, "POB117": 1.0, "POB117_R": 2.4, "POB118": 1.0, "POB118_R": 2.4, "POB119": 0.0, "POB119_R": 0.0, "POB120": 0.0, "POB120_R": 0.0, "POB121": 1.0, "POB121_R": 2.4, "POB122": 1.0, "POB122_R": 2.4, "POB123": 0.0, "POB123_R": 0.0, "POB124": 0.0, "POB124_R": 0.0, "OID": 2018 }, "geometry": { "type": "Point", "coordinates": [ -89.754168055697093, 20.668446944152837 ] } },
{ "type": "Feature", "properties": { "CVEGEO": null, "NOM_ENT": null, "NOM_MUN": null, "NOMGEO": "Umán", "CVE_AGEB": null, "POB1": null, "POB2": null, "POB2_R": null, "POB4": null, "POB4_R": null, "POB5": null, "POB5_R": null, "POB6": null, "POB6_R": null, "POB7": null, "POB7_R": null, "POB8": null, "POB8_R": null, "POB9": null, "POB9_R": null, "POB10": null, "POB10_R": null, "POB11": null, "POB11_R": null, "POB12": null, "POB12_R": null, "POB13": null, "POB13_R": null, "POB14": null, "POB14_R": null, "POB15": null, "POB15_R": null, "POB17": null, "POB17_R": null, "POB18": null, "POB18_R": null, "POB19": null, "POB19_R": null, "POB20": null, "POB20_R": null, "POB21": null, "POB21_R": null, "POB22": null, "POB22_R": null, "POB23": null, "POB23_R": null, "POB24": null, "POB24_R": null, "POB25": null, "POB25_R": null, "POB42": null, "POB42_R": null, "POB43": null, "POB43_R": null, "POB45": null, "POB45_R": null, "POB46": null, "POB46_R": null, "POB47": null, "POB47_R": null, "POB48": null, "POB48_R": null, "POB49": null, "POB49_R": null, "POB50": null, "POB50_R": null, "POB51": null, "POB51_R": null, "POB52": null, "POB52_R": null, "POB53": null, "POB53_R": null, "POB54": null, "POB54_R": null, "POB55": null, "POB55_R": null, "POB56": null, "POB56_R": null, "POB57": null, "POB57_R": null, "POB59": null, "POB59_R": null, "POB60": null, "POB60_R": null, "POB61": null, "POB61_R": null, "POB62": null, "POB62_R": null, "POB63": null, "POB63_R": null, "POB64": null, "POB64_R": null, "POB65": null, "POB65_R": null, "POB66": null, "POB66_R": null, "POB67": null, "POB67_R": null, "POB84": null, "POB84_R": null, "POB85": null, "POB85_R": null, "POB87": null, "POB87_R": null, "POB88": null, "POB88_R": null, "POB89": null, "POB89_R": null, "POB90": null, "POB90_R": null, "POB91": null, "POB91_R": null, "POB92": null, "POB92_R": null, "POB93": null, "POB93_R": null, "POB94": null, "POB94_R": null, "POB95": null, "POB95_R": null, "POB96": null, "POB96_R": null, "POB97": null, "POB97_R": null, "POB98": null, "POB98_R": null, "POB100": null, "POB100_R": null, "POB101": null, "POB101_R": null, "POB102": null, "POB102_R": null, "POB103": null, "POB103_R": null, "POB104": null, "POB104_R": null, "POB105": null, "POB105_R": null, "POB106": null, "POB106_R": null, "POB107": null, "POB107_R": null, "POB108": null, "POB108_R": null, "POB125_R": null, "POB126_R": null, "POB127_R": null, "POB128_R": null, "POB129_R": null, "POB130_R": null, "POB131_R": null, "POB132_R": null, "POB133_R": null, "POB134_R": null, "POB3": null, "POB3_R": null, "POB16": null, "POB16_R": null, "POB26": null, "POB26_R": null, "POB27": null, "POB27_R": null, "POB28": null, "POB28_R": null, "POB29": null, "POB29_R": null, "POB30": null, "POB30_R": null, "POB31": null, "POB31_R": null, "POB32": null, "POB32_R": null, "POB33": null, "POB33_R": null, "POB34": null, "POB34_R": null, "POB35": null, "POB35_R": null, "POB36": null, "POB36_R": null, "POB37": null, "POB37_R": null, "POB38": null, "POB38_R": null, "POB39": null, "POB39_R": null, "POB40": null, "POB40_R": null, "POB41": null, "POB41_R": null, "POB44": null, "POB44_R": null, "POB58": null, "POB58_R": null, "POB68": null, "POB68_R": null, "POB69": null, "POB69_R": null, "POB70": null, "POB70_R": null, "POB71": null, "POB71_R": null, "POB72": null, "POB72_R": null, "POB73": null, "POB73_R": null, "POB74": null, "POB74_R": null, "POB75": null, "POB75_R": null, "POB76": null, "POB76_R": null, "POB77": null, "POB77_R": null, "POB78": null, "POB78_R": null, "POB79": null, "POB79_R": null, "POB80": null, "POB80_R": null, "POB81": null, "POB81_R": null, "POB82": null, "POB82_R": null, "POB83": null, "POB83_R": null, "POB86": null, "POB86_R": null, "POB99": null, "POB99_R": null, "POB109": null, "POB109_R": null, "POB110": null, "POB110_R": null, "POB111": null, "POB111_R": null, "POB112": null, "POB112_R": null, "POB113": null, "POB113_R": null, "POB114": null, "POB114_R": null, "POB115": null, "POB115_R": null, "POB116": null, "POB116_R": null, "POB117": null, "POB117_R": null, "POB118": null, "POB118_R": null, "POB119": null, "POB119_R": null, "POB120": null, "POB120_R": null, "POB121": null, "POB121_R": null, "POB122": null, "POB122_R": null, "POB123": null, "POB123_R": null, "POB124": null, "POB124_R": null, "OID": null }, "geometry": { "type": "Point", "coordinates": [ -89.723580780538441, 20.901331127684958 ] } },
{ "type": "Feature", "properties": { "CVEGEO": null, "NOM_ENT": null, "NOM_MUN": null, "NOMGEO": "Mucuyché", "CVE_AGEB": null, "POB1": null, "POB2": null, "POB2_R": null, "POB4": null, "POB4_R": null, "POB5": null, "POB5_R": null, "POB6": null, "POB6_R": null, "POB7": null, "POB7_R": null, "POB8": null, "POB8_R": null, "POB9": null, "POB9_R": null, "POB10": null, "POB10_R": null, "POB11": null, "POB11_R": null, "POB12": null, "POB12_R": null, "POB13": null, "POB13_R": null, "POB14": null, "POB14_R": null, "POB15": null, "POB15_R": null, "POB17": null, "POB17_R": null, "POB18": null, "POB18_R": null, "POB19": null, "POB19_R": null, "POB20": null, "POB20_R": null, "POB21": null, "POB21_R": null, "POB22": null, "POB22_R": null, "POB23": null, "POB23_R": null, "POB24": null, "POB24_R": null, "POB25": null, "POB25_R": null, "POB42": null, "POB42_R": null, "POB43": null, "POB43_R": null, "POB45": null, "POB45_R": null, "POB46": null, "POB46_R": null, "POB47": null, "POB47_R": null, "POB48": null, "POB48_R": null, "POB49": null, "POB49_R": null, "POB50": null, "POB50_R": null, "POB51": null, "POB51_R": null, "POB52": null, "POB52_R": null, "POB53": null, "POB53_R": null, "POB54": null, "POB54_R": null, "POB55": null, "POB55_R": null, "POB56": null, "POB56_R": null, "POB57": null, "POB57_R": null, "POB59": null, "POB59_R": null, "POB60": null, "POB60_R": null, "POB61": null, "POB61_R": null, "POB62": null, "POB62_R": null, "POB63": null, "POB63_R": null, "POB64": null, "POB64_R": null, "POB65": null, "POB65_R": null, "POB66": null, "POB66_R": null, "POB67": null, "POB67_R": null, "POB84": null, "POB84_R": null, "POB85": null, "POB85_R": null, "POB87": null, "POB87_R": null, "POB88": null, "POB88_R": null, "POB89": null, "POB89_R": null, "POB90": null, "POB90_R": null, "POB91": null, "POB91_R": null, "POB92": null, "POB92_R": null, "POB93": null, "POB93_R": null, "POB94": null, "POB94_R": null, "POB95": null, "POB95_R": null, "POB96": null, "POB96_R": null, "POB97": null, "POB97_R": null, "POB98": null, "POB98_R": null, "POB100": null, "POB100_R": null, "POB101": null, "POB101_R": null, "POB102": null, "POB102_R": null, "POB103": null, "POB103_R": null, "POB104": null, "POB104_R": null, "POB105": null, "POB105_R": null, "POB106": null, "POB106_R": null, "POB107": null, "POB107_R": null, "POB108": null, "POB108_R": null, "POB125_R": null, "POB126_R": null, "POB127_R": null, "POB128_R": null, "POB129_R": null, "POB130_R": null, "POB131_R": null, "POB132_R": null, "POB133_R": null, "POB134_R": null, "POB3": null, "POB3_R": null, "POB16": null, "POB16_R": null, "POB26": null, "POB26_R": null, "POB27": null, "POB27_R": null, "POB28": null, "POB28_R": null, "POB29": null, "POB29_R": null, "POB30": null, "POB30_R": null, "POB31": null, "POB31_R": null, "POB32": null, "POB32_R": null, "POB33": null, "POB33_R": null, "POB34": null, "POB34_R": null, "POB35": null, "POB35_R": null, "POB36": null, "POB36_R": null, "POB37": null, "POB37_R": null, "POB38": null, "POB38_R": null, "POB39": null, "POB39_R": null, "POB40": null, "POB40_R": null, "POB41": null, "POB41_R": null, "POB44": null, "POB44_R": null, "POB58": null, "POB58_R": null, "POB68": null, "POB68_R": null, "POB69": null, "POB69_R": null, "POB70": null, "POB70_R": null, "POB71": null, "POB71_R": null, "POB72": null, "POB72_R": null, "POB73": null, "POB73_R": null, "POB74": null, "POB74_R": null, "POB75": null, "POB75_R": null, "POB76": null, "POB76_R": null, "POB77": null, "POB77_R": null, "POB78": null, "POB78_R": null, "POB79": null, "POB79_R": null, "POB80": null, "POB80_R": null, "POB81": null, "POB81_R": null, "POB82": null, "POB82_R": null, "POB83": null, "POB83_R": null, "POB86": null, "POB86_R": null, "POB99": null, "POB99_R": null, "POB109": null, "POB109_R": null, "POB110": null, "POB110_R": null, "POB111": null, "POB111_R": null, "POB112": null, "POB112_R": null, "POB113": null, "POB113_R": null, "POB114": null, "POB114_R": null, "POB115": null, "POB115_R": null, "POB116": null, "POB116_R": null, "POB117": null, "POB117_R": null, "POB118": null, "POB118_R": null, "POB119": null, "POB119_R": null, "POB120": null, "POB120_R": null, "POB121": null, "POB121_R": null, "POB122": null, "POB122_R": null, "POB123": null, "POB123_R": null, "POB124": null, "POB124_R": null, "OID": null }, "geometry": { "type": "Point", "coordinates": [ -89.604013360673562, 20.623664690389706 ] } }
]
}
