{
"type": "FeatureCollection",
"name": "mancomunados_points",
"crs": { "type": "name", "properties": { "name": "urn:ogc:def:crs:OGC:1.3:CRS84" } },
"features": [
{ "type": "Feature", "properties": { "CVEGEO": "202620002", "NOM_ENT": "Oaxaca", "NOM_MUN": "San Miguel Amatlán", "NOMGEO": "Cuajimoloyas", "CVE_AGEB": "0020", "POB1": 672.0, "POB2": 38.0, "POB2_R": 5.7, "POB4": 29.0, "POB4_R": 4.3, "POB5": 78.0, "POB5_R": 11.6, "POB6": 92.0, "POB6_R": 13.7, "POB7": 46.0, "POB7_R": 6.8, "POB8": 191.0, "POB8_R": 28.4, "POB9": 34.0, "POB9_R": 5.1, "POB10": 103.0, "POB10_R": 15.3, "POB11": 150.0, "POB11_R": 22.3, "POB12": 405.0, "POB12_R": 60.3, "POB13": 69.0, "POB13_R": 10.3, "POB14": 161.0, "POB14_R": 24.0, "POB15": 65.0, "POB15_R": 9.7, "POB17": 634.0, "POB17_R": 94.3, "POB18": 614.0, "POB18_R": 91.4, "POB19": 527.0, "POB19_R": 78.4, "POB20": 481.0, "POB20_R": 71.6, "POB21": 447.0, "POB21_R": 66.5, "POB22": 378.0, "POB22_R": 56.3, "POB23": 105.0, "POB23_R": 15.6, "POB24": 76.0, "POB24_R": 11.3, "POB25": 58.0, "POB25_R": 8.6, "POB42": 354.0, "POB42_R": 52.7, "POB43": 22.0, "POB43_R": 3.3, "POB45": 18.0, "POB45_R": 2.7, "POB46": 36.0, "POB46_R": 5.4, "POB47": 49.0, "POB47_R": 7.3, "POB48": 21.0, "POB48_R": 3.1, "POB49": 97.0, "POB49_R": 14.4, "POB50": 25.0, "POB50_R": 3.7, "POB51": 62.0, "POB51_R": 9.2, "POB52": 85.0, "POB52_R": 12.6, "POB53": 170.0, "POB53_R": 25.3, "POB54": 214.0, "POB54_R": 31.8, "POB55": 37.0, "POB55_R": 5.5, "POB56": 85.0, "POB56_R": 12.6, "POB57": 35.0, "POB57_R": 5.2, "POB59": 332.0, "POB59_R": 49.4, "POB60": 318.0, "POB60_R": 47.3, "POB61": 278.0, "POB61_R": 41.4, "POB62": 257.0, "POB62_R": 38.2, "POB63": 232.0, "POB63_R": 34.5, "POB64": 195.0, "POB64_R": 29.0, "POB65": 52.0, "POB65_R": 7.7, "POB66": 43.0, "POB66_R": 6.4, "POB67": 30.0, "POB67_R": 4.5, "POB84": 318.0, "POB84_R": 47.3, "POB85": 16.0, "POB85_R": 2.4, "POB87": 11.0, "POB87_R": 1.6, "POB88": 42.0, "POB88_R": 6.3, "POB89": 43.0, "POB89_R": 6.4, "POB90": 25.0, "POB90_R": 3.7, "POB91": 94.0, "POB91_R": 14.0, "POB92": 9.0, "POB92_R": 1.3, "POB93": 41.0, "POB93_R": 6.1, "POB94": 65.0, "POB94_R": 9.7, "POB95": 191.0, "POB95_R": 28.4, "POB96": 32.0, "POB96_R": 4.8, "POB97": 76.0, "POB97_R": 11.3, "POB98": 30.0, "POB98_R": 4.5, "POB100": 302.0, "POB100_R": 44.9, "POB101": 296.0, "POB101_R": 44.0, "POB102": 249.0, "POB102_R": 37.1, "POB103": 224.0, "POB103_R": 33.3, "POB104": 215.0, "POB104_R": 32.0, "POB105": 183.0, "POB105_R": 27.2, "POB106": 53.0, "POB106_R": 7.9, "POB107": 33.0, "POB107_R": 4.9, "POB108": 28.0, "POB108_R": 4.2, "POB125_R": 89.8, "POB126_R": 65.9, "POB127_R": 47.2, "POB128_R": 18.8, "POB129_R": 29.0, "POB130_R": 28.0, "POB131_R": 29.5, "POB132_R": 55.0, "POB133_R": 53.6, "POB134_R": 56.4, "POB3": 58.0, "POB3_R": 8.6, "POB16": 29.0, "POB16_R": 4.3, "POB26": 56.0, "POB26_R": 8.3, "POB27": 77.0, "POB27_R": 11.5, "POB28": 51.0, "POB28_R": 7.6, "POB29": 52.0, "POB29_R": 7.7, "POB30": 47.0, "POB30_R": 7.0, "POB31": 34.0, "POB31_R": 5.1, "POB32": 35.0, "POB32_R": 5.2, "POB33": 48.0, "POB33_R": 7.1, "POB34": 44.0, "POB34_R": 6.5, "POB35": 43.0, "POB35_R": 6.4, "POB36": 22.0, "POB36_R": 3.3, "POB37": 18.0, "POB37_R": 2.7, "POB38": 14.0, "POB38_R": 2.1, "POB39": 21.0, "POB39_R": 3.1, "POB40": 9.0, "POB40_R": 1.3, "POB41": 14.0, "POB41_R": 2.1, "POB44": 36.0, "POB44_R": 5.4, "POB58": 9.0, "POB58_R": 1.3, "POB68": 21.0, "POB68_R": 3.1, "POB69": 40.0, "POB69_R": 6.0, "POB70": 34.0, "POB70_R": 5.1, "POB71": 28.0, "POB71_R": 4.2, "POB72": 23.0, "POB72_R": 3.4, "POB73": 13.0, "POB73_R": 1.9, "POB74": 21.0, "POB74_R": 3.1, "POB75": 30.0, "POB75_R": 4.5, "POB76": 21.0, "POB76_R": 3.1, "POB77": 21.0, "POB77_R": 3.1, "POB78": 14.0, "POB78_R": 2.1, "POB79": 13.0, "POB79_R": 1.9, "POB80": 8.0, "POB80_R": 1.2, "POB81": 9.0, "POB81_R": 1.3, "POB82": 6.0, "POB82_R": 0.9, "POB83": 7.0, "POB83_R": 1.0, "POB86": 22.0, "POB86_R": 3.3, "POB99": 20.0, "POB99_R": 3.0, "POB109": 35.0, "POB109_R": 5.2, "POB110": 37.0, "POB110_R": 5.5, "POB111": 17.0, "POB111_R": 2.5, "POB112": 24.0, "POB112_R": 3.6, "POB113": 24.0, "POB113_R": 3.6, "POB114": 21.0, "POB114_R": 3.1, "POB115": 14.0, "POB115_R": 2.1, "POB116": 18.0, "POB116_R": 2.7, "POB117": 23.0, "POB117_R": 3.4, "POB118": 22.0, "POB118_R": 3.3, "POB119": 8.0, "POB119_R": 1.2, "POB120": 5.0, "POB120_R": 0.7, "POB121": 6.0, "POB121_R": 0.9, "POB122": 12.0, "POB122_R": 1.8, "POB123": 3.0, "POB123_R": 0.4, "POB124": 7.0, "POB124_R": 1.0, "OID": 4878, "layer": "2_manco", "path": "D:\\Users\\asfigueroa\\Downloads\\2_manco.geojson" }, "geometry": { "type": "Point", "coordinates": [ -96.451738333412663, 17.119401666984338 ] } },
{ "type": "Feature", "properties": { "CVEGEO": "202620003", "NOM_ENT": "Oaxaca", "NOM_MUN": "San Miguel Amatlán", "NOMGEO": "Llano Grande", "CVE_AGEB": "0020", "POB1": 77.0, "POB2": 3.0, "POB2_R": 3.9, "POB4": 5.0, "POB4_R": 6.5, "POB5": 6.0, "POB5_R": 7.8, "POB6": 11.0, "POB6_R": 14.3, "POB7": 7.0, "POB7_R": 9.1, "POB8": 21.0, "POB8_R": 27.3, "POB9": 1.0, "POB9_R": 1.3, "POB10": 10.0, "POB10_R": 13.0, "POB11": 21.0, "POB11_R": 27.3, "POB12": 47.0, "POB12_R": 61.0, "POB13": 9.0, "POB13_R": 11.7, "POB14": 16.0, "POB14_R": 20.8, "POB15": 7.0, "POB15_R": 9.1, "POB17": 74.0, "POB17_R": 96.1, "POB18": 70.0, "POB18_R": 90.9, "POB19": 63.0, "POB19_R": 81.8, "POB20": 56.0, "POB20_R": 72.7, "POB21": 55.0, "POB21_R": 71.4, "POB22": 46.0, "POB22_R": 59.7, "POB23": 12.0, "POB23_R": 15.6, "POB24": 9.0, "POB24_R": 11.7, "POB25": 6.0, "POB25_R": 7.8, "POB42": 38.0, "POB42_R": 49.4, "POB43": 1.0, "POB43_R": 1.3, "POB45": 3.0, "POB45_R": 3.9, "POB46": 3.0, "POB46_R": 3.9, "POB47": 5.0, "POB47_R": 6.5, "POB48": 2.0, "POB48_R": 2.6, "POB49": 9.0, "POB49_R": 11.7, "POB50": 0.0, "POB50_R": 0.0, "POB51": 5.0, "POB51_R": 6.5, "POB52": 10.0, "POB52_R": 13.0, "POB53": 20.0, "POB53_R": 26.0, "POB54": 25.0, "POB54_R": 32.5, "POB55": 5.0, "POB55_R": 6.5, "POB56": 10.0, "POB56_R": 13.0, "POB57": 3.0, "POB57_R": 3.9, "POB59": 37.0, "POB59_R": 48.1, "POB60": 34.0, "POB60_R": 44.2, "POB61": 31.0, "POB61_R": 40.3, "POB62": 29.0, "POB62_R": 37.7, "POB63": 29.0, "POB63_R": 37.7, "POB64": 24.0, "POB64_R": 31.2, "POB65": 6.0, "POB65_R": 7.8, "POB66": 4.0, "POB66_R": 5.2, "POB67": 3.0, "POB67_R": 3.9, "POB84": 39.0, "POB84_R": 50.6, "POB85": 2.0, "POB85_R": 2.6, "POB87": 2.0, "POB87_R": 2.6, "POB88": 3.0, "POB88_R": 3.9, "POB89": 6.0, "POB89_R": 7.8, "POB90": 5.0, "POB90_R": 6.5, "POB91": 12.0, "POB91_R": 15.6, "POB92": 1.0, "POB92_R": 1.3, "POB93": 5.0, "POB93_R": 6.5, "POB94": 11.0, "POB94_R": 14.3, "POB95": 22.0, "POB95_R": 28.6, "POB96": 4.0, "POB96_R": 5.2, "POB97": 6.0, "POB97_R": 7.8, "POB98": 4.0, "POB98_R": 5.2, "POB100": 37.0, "POB100_R": 48.1, "POB101": 36.0, "POB101_R": 46.8, "POB102": 32.0, "POB102_R": 41.6, "POB103": 27.0, "POB103_R": 35.1, "POB104": 26.0, "POB104_R": 33.8, "POB105": 22.0, "POB105_R": 28.6, "POB106": 6.0, "POB106_R": 7.8, "POB107": 5.0, "POB107_R": 6.5, "POB108": 3.0, "POB108_R": 3.9, "POB125_R": 102.6, "POB126_R": 63.8, "POB127_R": 44.7, "POB128_R": 19.1, "POB129_R": 28.0, "POB130_R": 30.0, "POB131_R": 27.0, "POB132_R": 57.1, "POB133_R": 66.7, "POB134_R": 50.0, "POB3": 7.0, "POB3_R": 9.1, "POB16": 3.0, "POB16_R": 3.9, "POB26": 6.0, "POB26_R": 7.8, "POB27": 8.0, "POB27_R": 10.4, "POB28": 3.0, "POB28_R": 3.9, "POB29": 7.0, "POB29_R": 9.1, "POB30": 11.0, "POB30_R": 14.3, "POB31": 8.0, "POB31_R": 10.4, "POB32": 3.0, "POB32_R": 3.9, "POB33": 2.0, "POB33_R": 2.6, "POB34": 3.0, "POB34_R": 3.9, "POB35": 3.0, "POB35_R": 3.9, "POB36": 4.0, "POB36_R": 5.2, "POB37": 3.0, "POB37_R": 3.9, "POB38": 1.0, "POB38_R": 1.3, "POB39": 2.0, "POB39_R": 2.6, "POB40": 3.0, "POB40_R": 3.9, "POB41": 0.0, "POB41_R": 0.0, "POB44": 4.0, "POB44_R": 5.2, "POB58": 2.0, "POB58_R": 2.6, "POB68": 2.0, "POB68_R": 2.6, "POB69": 3.0, "POB69_R": 3.9, "POB70": 0.0, "POB70_R": 0.0, "POB71": 5.0, "POB71_R": 6.5, "POB72": 5.0, "POB72_R": 6.5, "POB73": 4.0, "POB73_R": 5.2, "POB74": 2.0, "POB74_R": 2.6, "POB75": 2.0, "POB75_R": 2.6, "POB76": 2.0, "POB76_R": 2.6, "POB77": 2.0, "POB77_R": 2.6, "POB78": 1.0, "POB78_R": 1.3, "POB79": 1.0, "POB79_R": 1.3, "POB80": 0.0, "POB80_R": 0.0, "POB81": 1.0, "POB81_R": 1.3, "POB82": 2.0, "POB82_R": 2.6, "POB83": 0.0, "POB83_R": 0.0, "POB86": 3.0, "POB86_R": 3.9, "POB99": 1.0, "POB99_R": 1.3, "POB109": 4.0, "POB109_R": 5.2, "POB110": 5.0, "POB110_R": 6.5, "POB111": 3.0, "POB111_R": 3.9, "POB112": 2.0, "POB112_R": 2.6, "POB113": 6.0, "POB113_R": 7.8, "POB114": 4.0, "POB114_R": 5.2, "POB115": 1.0, "POB115_R": 1.3, "POB116": 0.0, "POB116_R": 0.0, "POB117": 1.0, "POB117_R": 1.3, "POB118": 1.0, "POB118_R": 1.3, "POB119": 3.0, "POB119_R": 3.9, "POB120": 2.0, "POB120_R": 2.6, "POB121": 1.0, "POB121_R": 1.3, "POB122": 1.0, "POB122_R": 1.3, "POB123": 1.0, "POB123_R": 1.3, "POB124": 0.0, "POB124_R": 0.0, "OID": 4879, "layer": "2_manco", "path": "D:\\Users\\asfigueroa\\Downloads\\2_manco.geojson" }, "geometry": { "type": "Point", "coordinates": [ -96.411434722042969, 17.145484722106808 ] } },
{ "type": "Feature", "properties": { "CVEGEO": "", "NOM_ENT": "", "NOM_MUN": null, "NOMGEO": "San Miguel Amatlán", "CVE_AGEB": null, "POB1": null, "POB2": null, "POB2_R": null, "POB4": null, "POB4_R": null, "POB5": null, "POB5_R": null, "POB6": null, "POB6_R": null, "POB7": null, "POB7_R": null, "POB8": null, "POB8_R": null, "POB9": null, "POB9_R": null, "POB10": null, "POB10_R": null, "POB11": null, "POB11_R": null, "POB12": null, "POB12_R": null, "POB13": null, "POB13_R": null, "POB14": null, "POB14_R": null, "POB15": null, "POB15_R": null, "POB17": null, "POB17_R": null, "POB18": null, "POB18_R": null, "POB19": null, "POB19_R": null, "POB20": null, "POB20_R": null, "POB21": null, "POB21_R": null, "POB22": null, "POB22_R": null, "POB23": null, "POB23_R": null, "POB24": null, "POB24_R": null, "POB25": null, "POB25_R": null, "POB42": null, "POB42_R": null, "POB43": null, "POB43_R": null, "POB45": null, "POB45_R": null, "POB46": null, "POB46_R": null, "POB47": null, "POB47_R": null, "POB48": null, "POB48_R": null, "POB49": null, "POB49_R": null, "POB50": null, "POB50_R": null, "POB51": null, "POB51_R": null, "POB52": null, "POB52_R": null, "POB53": null, "POB53_R": null, "POB54": null, "POB54_R": null, "POB55": null, "POB55_R": null, "POB56": null, "POB56_R": null, "POB57": null, "POB57_R": null, "POB59": null, "POB59_R": null, "POB60": null, "POB60_R": null, "POB61": null, "POB61_R": null, "POB62": null, "POB62_R": null, "POB63": null, "POB63_R": null, "POB64": null, "POB64_R": null, "POB65": null, "POB65_R": null, "POB66": null, "POB66_R": null, "POB67": null, "POB67_R": null, "POB84": null, "POB84_R": null, "POB85": null, "POB85_R": null, "POB87": null, "POB87_R": null, "POB88": null, "POB88_R": null, "POB89": null, "POB89_R": null, "POB90": null, "POB90_R": null, "POB91": null, "POB91_R": null, "POB92": null, "POB92_R": null, "POB93": null, "POB93_R": null, "POB94": null, "POB94_R": null, "POB95": null, "POB95_R": null, "POB96": null, "POB96_R": null, "POB97": null, "POB97_R": null, "POB98": null, "POB98_R": null, "POB100": null, "POB100_R": null, "POB101": null, "POB101_R": null, "POB102": null, "POB102_R": null, "POB103": null, "POB103_R": null, "POB104": null, "POB104_R": null, "POB105": null, "POB105_R": null, "POB106": null, "POB106_R": null, "POB107": null, "POB107_R": null, "POB108": null, "POB108_R": null, "POB125_R": null, "POB126_R": null, "POB127_R": null, "POB128_R": null, "POB129_R": null, "POB130_R": null, "POB131_R": null, "POB132_R": null, "POB133_R": null, "POB134_R": null, "POB3": null, "POB3_R": null, "POB16": null, "POB16_R": null, "POB26": null, "POB26_R": null, "POB27": null, "POB27_R": null, "POB28": null, "POB28_R": null, "POB29": null, "POB29_R": null, "POB30": null, "POB30_R": null, "POB31": null, "POB31_R": null, "POB32": null, "POB32_R": null, "POB33": null, "POB33_R": null, "POB34": null, "POB34_R": null, "POB35": null, "POB35_R": null, "POB36": null, "POB36_R": null, "POB37": null, "POB37_R": null, "POB38": null, "POB38_R": null, "POB39": null, "POB39_R": null, "POB40": null, "POB40_R": null, "POB41": null, "POB41_R": null, "POB44": null, "POB44_R": null, "POB58": null, "POB58_R": null, "POB68": null, "POB68_R": null, "POB69": null, "POB69_R": null, "POB70": null, "POB70_R": null, "POB71": null, "POB71_R": null, "POB72": null, "POB72_R": null, "POB73": null, "POB73_R": null, "POB74": null, "POB74_R": null, "POB75": null, "POB75_R": null, "POB76": null, "POB76_R": null, "POB77": null, "POB77_R": null, "POB78": null, "POB78_R": null, "POB79": null, "POB79_R": null, "POB80": null, "POB80_R": null, "POB81": null, "POB81_R": null, "POB82": null, "POB82_R": null, "POB83": null, "POB83_R": null, "POB86": null, "POB86_R": null, "POB99": null, "POB99_R": null, "POB109": null, "POB109_R": null, "POB110": null, "POB110_R": null, "POB111": null, "POB111_R": null, "POB112": null, "POB112_R": null, "POB113": null, "POB113_R": null, "POB114": null, "POB114_R": null, "POB115": null, "POB115_R": null, "POB116": null, "POB116_R": null, "POB117": null, "POB117_R": null, "POB118": null, "POB118_R": null, "POB119": null, "POB119_R": null, "POB120": null, "POB120_R": null, "POB121": null, "POB121_R": null, "POB122": null, "POB122_R": null, "POB123": null, "POB123_R": null, "POB124": null, "POB124_R": null, "OID": null, "layer": "2_manco", "path": "D:\\Users\\asfigueroa\\Downloads\\2_manco.geojson" }, "geometry": { "type": "Point", "coordinates": [ -96.471310817538409, 17.274865908429231 ] } },
{ "type": "Feature", "properties": { "CVEGEO": "203650002", "NOM_ENT": "Oaxaca", "NOM_MUN": "Santa Catarina Lachatao", "NOMGEO": "Benito Juárez", "CVE_AGEB": "0028", "POB1": 276.0, "POB2": 12.0, "POB2_R": 4.3, "POB4": 15.0, "POB4_R": 5.4, "POB5": 24.0, "POB5_R": 8.7, "POB6": 30.0, "POB6_R": 10.9, "POB7": 12.0, "POB7_R": 4.3, "POB8": 63.0, "POB8_R": 22.8, "POB9": 6.0, "POB9_R": 2.2, "POB10": 20.0, "POB10_R": 7.2, "POB11": 40.0, "POB11_R": 14.5, "POB12": 168.0, "POB12_R": 60.9, "POB13": 14.0, "POB13_R": 5.1, "POB14": 75.0, "POB14_R": 27.2, "POB15": 34.0, "POB15_R": 12.3, "POB17": 264.0, "POB17_R": 95.7, "POB18": 255.0, "POB18_R": 92.4, "POB19": 225.0, "POB19_R": 81.5, "POB20": 213.0, "POB20_R": 77.2, "POB21": 207.0, "POB21_R": 75.0, "POB22": 193.0, "POB22_R": 69.9, "POB23": 64.0, "POB23_R": 23.2, "POB24": 45.0, "POB24_R": 16.3, "POB25": 29.0, "POB25_R": 10.5, "POB42": 145.0, "POB42_R": 52.5, "POB43": 9.0, "POB43_R": 3.3, "POB45": 10.0, "POB45_R": 3.6, "POB46": 10.0, "POB46_R": 3.6, "POB47": 14.0, "POB47_R": 5.1, "POB48": 5.0, "POB48_R": 1.8, "POB49": 34.0, "POB49_R": 12.3, "POB50": 5.0, "POB50_R": 1.8, "POB51": 16.0, "POB51_R": 5.8, "POB52": 23.0, "POB52_R": 8.3, "POB53": 65.0, "POB53_R": 23.6, "POB54": 88.0, "POB54_R": 31.9, "POB55": 11.0, "POB55_R": 4.0, "POB56": 42.0, "POB56_R": 15.2, "POB57": 15.0, "POB57_R": 5.4, "POB59": 136.0, "POB59_R": 49.3, "POB60": 130.0, "POB60_R": 47.1, "POB61": 116.0, "POB61_R": 42.0, "POB62": 111.0, "POB62_R": 40.2, "POB63": 106.0, "POB63_R": 38.4, "POB64": 95.0, "POB64_R": 34.4, "POB65": 31.0, "POB65_R": 11.2, "POB66": 23.0, "POB66_R": 8.3, "POB67": 15.0, "POB67_R": 5.4, "POB84": 131.0, "POB84_R": 47.5, "POB85": 3.0, "POB85_R": 1.1, "POB87": 5.0, "POB87_R": 1.8, "POB88": 14.0, "POB88_R": 5.1, "POB89": 16.0, "POB89_R": 5.8, "POB90": 7.0, "POB90_R": 2.5, "POB91": 29.0, "POB91_R": 10.5, "POB92": 1.0, "POB92_R": 0.4, "POB93": 4.0, "POB93_R": 1.4, "POB94": 17.0, "POB94_R": 6.2, "POB95": 80.0, "POB95_R": 29.0, "POB96": 3.0, "POB96_R": 1.1, "POB97": 33.0, "POB97_R": 12.0, "POB98": 19.0, "POB98_R": 6.9, "POB100": 128.0, "POB100_R": 46.4, "POB101": 125.0, "POB101_R": 45.3, "POB102": 109.0, "POB102_R": 39.5, "POB103": 102.0, "POB103_R": 37.0, "POB104": 101.0, "POB104_R": 36.6, "POB105": 98.0, "POB105_R": 35.5, "POB106": 33.0, "POB106_R": 12.0, "POB107": 22.0, "POB107_R": 8.0, "POB108": 14.0, "POB108_R": 5.1, "POB125_R": 90.3, "POB126_R": 64.3, "POB127_R": 37.5, "POB128_R": 26.8, "POB129_R": 37.5, "POB130_R": 35.0, "POB131_R": 40.0, "POB132_R": 101.6, "POB133_R": 91.2, "POB134_R": 113.8, "POB3": 21.0, "POB3_R": 7.6, "POB16": 19.0, "POB16_R": 6.9, "POB26": 19.0, "POB26_R": 6.9, "POB27": 23.0, "POB27_R": 8.3, "POB28": 7.0, "POB28_R": 2.5, "POB29": 13.0, "POB29_R": 4.7, "POB30": 20.0, "POB30_R": 7.2, "POB31": 24.0, "POB31_R": 8.7, "POB32": 13.0, "POB32_R": 4.7, "POB33": 19.0, "POB33_R": 6.9, "POB34": 19.0, "POB34_R": 6.9, "POB35": 18.0, "POB35_R": 6.5, "POB36": 16.0, "POB36_R": 5.8, "POB37": 16.0, "POB37_R": 5.8, "POB38": 8.0, "POB38_R": 2.9, "POB39": 15.0, "POB39_R": 5.4, "POB40": 3.0, "POB40_R": 1.1, "POB41": 3.0, "POB41_R": 1.1, "POB44": 15.0, "POB44_R": 5.4, "POB58": 8.0, "POB58_R": 2.9, "POB68": 8.0, "POB68_R": 2.9, "POB69": 11.0, "POB69_R": 4.0, "POB70": 6.0, "POB70_R": 2.2, "POB71": 10.0, "POB71_R": 3.6, "POB72": 7.0, "POB72_R": 2.5, "POB73": 14.0, "POB73_R": 5.1, "POB74": 4.0, "POB74_R": 1.4, "POB75": 10.0, "POB75_R": 3.6, "POB76": 14.0, "POB76_R": 5.1, "POB77": 8.0, "POB77_R": 2.9, "POB78": 7.0, "POB78_R": 2.5, "POB79": 8.0, "POB79_R": 2.9, "POB80": 6.0, "POB80_R": 2.2, "POB81": 8.0, "POB81_R": 2.9, "POB82": 1.0, "POB82_R": 0.4, "POB83": 0.0, "POB83_R": 0.0, "POB86": 6.0, "POB86_R": 2.2, "POB99": 11.0, "POB99_R": 4.0, "POB109": 11.0, "POB109_R": 4.0, "POB110": 12.0, "POB110_R": 4.3, "POB111": 1.0, "POB111_R": 0.4, "POB112": 3.0, "POB112_R": 1.1, "POB113": 13.0, "POB113_R": 4.7, "POB114": 10.0, "POB114_R": 3.6, "POB115": 9.0, "POB115_R": 3.3, "POB116": 9.0, "POB116_R": 3.3, "POB117": 5.0, "POB117_R": 1.8, "POB118": 10.0, "POB118_R": 3.6, "POB119": 9.0, "POB119_R": 3.3, "POB120": 8.0, "POB120_R": 2.9, "POB121": 2.0, "POB121_R": 0.7, "POB122": 7.0, "POB122_R": 2.5, "POB123": 2.0, "POB123_R": 0.7, "POB124": 3.0, "POB124_R": 1.1, "OID": 6543, "layer": "3_manco", "path": "D:\\Users\\asfigueroa\\Downloads\\3_manco.geojson" }, "geometry": { "type": "Point", "coordinates": [ -96.493207222137769, 17.111654166861108 ] } },
{ "type": "Feature", "properties": { "CVEGEO": "203650003", "NOM_ENT": "Oaxaca", "NOM_MUN": "Santa Catarina Lachatao", "NOMGEO": "Latuvi", "CVE_AGEB": "0028", "POB1": 258.0, "POB2": 5.0, "POB2_R": 1.9, "POB4": 21.0, "POB4_R": 8.1, "POB5": 24.0, "POB5_R": 9.3, "POB6": 28.0, "POB6_R": 10.9, "POB7": 13.0, "POB7_R": 5.0, "POB8": 63.0, "POB8_R": 24.4, "POB9": 11.0, "POB9_R": 4.3, "POB10": 24.0, "POB10_R": 9.3, "POB11": 41.0, "POB11_R": 15.9, "POB12": 158.0, "POB12_R": 61.2, "POB13": 13.0, "POB13_R": 5.0, "POB14": 60.0, "POB14_R": 23.3, "POB15": 42.0, "POB15_R": 16.3, "POB17": 253.0, "POB17_R": 98.1, "POB18": 240.0, "POB18_R": 93.0, "POB19": 208.0, "POB19_R": 80.6, "POB20": 195.0, "POB20_R": 75.6, "POB21": 184.0, "POB21_R": 71.3, "POB22": 171.0, "POB22_R": 66.3, "POB23": 52.0, "POB23_R": 20.2, "POB24": 37.0, "POB24_R": 14.3, "POB25": 28.0, "POB25_R": 10.9, "POB42": 143.0, "POB42_R": 55.4, "POB43": 4.0, "POB43_R": 1.6, "POB45": 13.0, "POB45_R": 5.0, "POB46": 9.0, "POB46_R": 3.5, "POB47": 12.0, "POB47_R": 4.7, "POB48": 8.0, "POB48_R": 3.1, "POB49": 34.0, "POB49_R": 13.2, "POB50": 3.0, "POB50_R": 1.2, "POB51": 11.0, "POB51_R": 4.3, "POB52": 22.0, "POB52_R": 8.5, "POB53": 56.0, "POB53_R": 21.7, "POB54": 86.0, "POB54_R": 33.3, "POB55": 8.0, "POB55_R": 3.1, "POB56": 34.0, "POB56_R": 13.2, "POB57": 24.0, "POB57_R": 9.3, "POB59": 139.0, "POB59_R": 53.9, "POB60": 132.0, "POB60_R": 51.2, "POB61": 117.0, "POB61_R": 45.3, "POB62": 109.0, "POB62_R": 42.2, "POB63": 106.0, "POB63_R": 41.1, "POB64": 98.0, "POB64_R": 38.0, "POB65": 29.0, "POB65_R": 11.2, "POB66": 23.0, "POB66_R": 8.9, "POB67": 18.0, "POB67_R": 7.0, "POB84": 115.0, "POB84_R": 44.6, "POB85": 1.0, "POB85_R": 0.4, "POB87": 8.0, "POB87_R": 3.1, "POB88": 15.0, "POB88_R": 5.8, "POB89": 16.0, "POB89_R": 6.2, "POB90": 5.0, "POB90_R": 1.9, "POB91": 29.0, "POB91_R": 11.2, "POB92": 8.0, "POB92_R": 3.1, "POB93": 13.0, "POB93_R": 5.0, "POB94": 19.0, "POB94_R": 7.4, "POB95": 72.0, "POB95_R": 27.9, "POB96": 5.0, "POB96_R": 1.9, "POB97": 26.0, "POB97_R": 10.1, "POB98": 18.0, "POB98_R": 7.0, "POB100": 114.0, "POB100_R": 44.2, "POB101": 108.0, "POB101_R": 41.9, "POB102": 91.0, "POB102_R": 35.3, "POB103": 86.0, "POB103_R": 33.3, "POB104": 78.0, "POB104_R": 30.2, "POB105": 73.0, "POB105_R": 28.3, "POB106": 23.0, "POB106_R": 8.9, "POB107": 14.0, "POB107_R": 5.4, "POB108": 10.0, "POB108_R": 3.9, "POB125_R": 80.4, "POB126_R": 63.3, "POB127_R": 39.9, "POB128_R": 23.4, "POB129_R": 39.5, "POB130_R": 43.0, "POB131_R": 34.0, "POB132_R": 82.5, "POB133_R": 85.3, "POB134_R": 79.3, "POB3": 18.0, "POB3_R": 7.0, "POB16": 15.0, "POB16_R": 5.8, "POB26": 25.0, "POB26_R": 9.7, "POB27": 20.0, "POB27_R": 7.8, "POB28": 14.0, "POB28_R": 5.4, "POB29": 10.0, "POB29_R": 3.9, "POB30": 17.0, "POB30_R": 6.6, "POB31": 16.0, "POB31_R": 6.2, "POB32": 9.0, "POB32_R": 3.5, "POB33": 12.0, "POB33_R": 4.7, "POB34": 23.0, "POB34_R": 8.9, "POB35": 25.0, "POB35_R": 9.7, "POB36": 17.0, "POB36_R": 6.6, "POB37": 9.0, "POB37_R": 3.5, "POB38": 7.0, "POB38_R": 2.7, "POB39": 5.0, "POB39_R": 1.9, "POB40": 8.0, "POB40_R": 3.1, "POB41": 8.0, "POB41_R": 3.1, "POB44": 11.0, "POB44_R": 4.3, "POB58": 6.0, "POB58_R": 2.3, "POB68": 13.0, "POB68_R": 5.0, "POB69": 10.0, "POB69_R": 3.9, "POB70": 4.0, "POB70_R": 1.6, "POB71": 7.0, "POB71_R": 2.7, "POB72": 11.0, "POB72_R": 4.3, "POB73": 4.0, "POB73_R": 1.6, "POB74": 7.0, "POB74_R": 2.7, "POB75": 7.0, "POB75_R": 2.7, "POB76": 16.0, "POB76_R": 6.2, "POB77": 12.0, "POB77_R": 4.7, "POB78": 12.0, "POB78_R": 4.7, "POB79": 5.0, "POB79_R": 1.9, "POB80": 5.0, "POB80_R": 1.9, "POB81": 3.0, "POB81_R": 1.2, "POB82": 5.0, "POB82_R": 1.9, "POB83": 5.0, "POB83_R": 1.9, "POB86": 7.0, "POB86_R": 2.7, "POB99": 9.0, "POB99_R": 3.5, "POB109": 12.0, "POB109_R": 4.7, "POB110": 10.0, "POB110_R": 3.9, "POB111": 10.0, "POB111_R": 3.9, "POB112": 3.0, "POB112_R": 1.2, "POB113": 6.0, "POB113_R": 2.3, "POB114": 12.0, "POB114_R": 4.7, "POB115": 2.0, "POB115_R": 0.8, "POB116": 5.0, "POB116_R": 1.9, "POB117": 7.0, "POB117_R": 2.7, "POB118": 13.0, "POB118_R": 5.0, "POB119": 5.0, "POB119_R": 1.9, "POB120": 4.0, "POB120_R": 1.6, "POB121": 2.0, "POB121_R": 0.8, "POB122": 2.0, "POB122_R": 0.8, "POB123": 3.0, "POB123_R": 1.2, "POB124": 3.0, "POB124_R": 1.2, "OID": 6544, "layer": "3_manco", "path": "D:\\Users\\asfigueroa\\Downloads\\3_manco.geojson" }, "geometry": { "type": "Point", "coordinates": [ -96.513378055725525, 17.189032222274218 ] } },
{ "type": "Feature", "properties": { "CVEGEO": "203650004", "NOM_ENT": "Oaxaca", "NOM_MUN": "Santa Catarina Lachatao", "NOMGEO": "La Nevería", "CVE_AGEB": "0028", "POB1": 69.0, "POB2": 2.0, "POB2_R": 2.9, "POB4": 4.0, "POB4_R": 5.8, "POB5": 8.0, "POB5_R": 11.6, "POB6": 9.0, "POB6_R": 13.0, "POB7": 3.0, "POB7_R": 4.3, "POB8": 17.0, "POB8_R": 24.6, "POB9": 2.0, "POB9_R": 2.9, "POB10": 5.0, "POB10_R": 7.2, "POB11": 9.0, "POB11_R": 13.0, "POB12": 37.0, "POB12_R": 53.6, "POB13": 3.0, "POB13_R": 4.3, "POB14": 15.0, "POB14_R": 21.7, "POB15": 8.0, "POB15_R": 11.6, "POB17": 67.0, "POB17_R": 97.1, "POB18": 64.0, "POB18_R": 92.8, "POB19": 55.0, "POB19_R": 79.7, "POB20": 52.0, "POB20_R": 75.4, "POB21": 50.0, "POB21_R": 72.5, "POB22": 47.0, "POB22_R": 68.1, "POB23": 20.0, "POB23_R": 29.0, "POB24": 15.0, "POB24_R": 21.7, "POB25": 10.0, "POB25_R": 14.5, "POB42": 39.0, "POB42_R": 56.5, "POB43": 0.0, "POB43_R": 0.0, "POB45": 2.0, "POB45_R": 2.9, "POB46": 6.0, "POB46_R": 8.7, "POB47": 7.0, "POB47_R": 10.1, "POB48": 2.0, "POB48_R": 2.9, "POB49": 10.0, "POB49_R": 14.5, "POB50": 2.0, "POB50_R": 2.9, "POB51": 3.0, "POB51_R": 4.3, "POB52": 6.0, "POB52_R": 8.7, "POB53": 16.0, "POB53_R": 23.2, "POB54": 21.0, "POB54_R": 30.4, "POB55": 1.0, "POB55_R": 1.4, "POB56": 10.0, "POB56_R": 14.5, "POB57": 4.0, "POB57_R": 5.8, "POB59": 39.0, "POB59_R": 56.5, "POB60": 37.0, "POB60_R": 53.6, "POB61": 31.0, "POB61_R": 44.9, "POB62": 29.0, "POB62_R": 42.0, "POB63": 27.0, "POB63_R": 39.1, "POB64": 26.0, "POB64_R": 37.7, "POB65": 9.0, "POB65_R": 13.0, "POB66": 8.0, "POB66_R": 11.6, "POB67": 5.0, "POB67_R": 7.2, "POB84": 30.0, "POB84_R": 43.5, "POB85": 2.0, "POB85_R": 2.9, "POB87": 2.0, "POB87_R": 2.9, "POB88": 2.0, "POB88_R": 2.9, "POB89": 2.0, "POB89_R": 2.9, "POB90": 1.0, "POB90_R": 1.4, "POB91": 7.0, "POB91_R": 10.1, "POB92": 0.0, "POB92_R": 0.0, "POB93": 2.0, "POB93_R": 2.9, "POB94": 3.0, "POB94_R": 4.3, "POB95": 16.0, "POB95_R": 23.2, "POB96": 2.0, "POB96_R": 2.9, "POB97": 5.0, "POB97_R": 7.2, "POB98": 4.0, "POB98_R": 5.8, "POB100": 28.0, "POB100_R": 40.6, "POB101": 27.0, "POB101_R": 39.1, "POB102": 24.0, "POB102_R": 34.8, "POB103": 23.0, "POB103_R": 33.3, "POB104": 23.0, "POB104_R": 33.3, "POB105": 21.0, "POB105_R": 30.4, "POB106": 11.0, "POB106_R": 15.9, "POB107": 7.0, "POB107_R": 10.1, "POB108": 5.0, "POB108_R": 7.2, "POB125_R": 76.9, "POB126_R": 86.5, "POB127_R": 45.9, "POB128_R": 40.5, "POB129_R": 39.0, "POB130_R": 34.0, "POB131_R": 48.0, "POB132_R": 117.6, "POB133_R": 90.0, "POB134_R": 157.1, "POB3": 5.0, "POB3_R": 7.2, "POB16": 5.0, "POB16_R": 7.2, "POB26": 5.0, "POB26_R": 7.2, "POB27": 7.0, "POB27_R": 10.1, "POB28": 4.0, "POB28_R": 5.8, "POB29": 1.0, "POB29_R": 1.4, "POB30": 4.0, "POB30_R": 5.8, "POB31": 6.0, "POB31_R": 8.7, "POB32": 3.0, "POB32_R": 4.3, "POB33": 3.0, "POB33_R": 4.3, "POB34": 3.0, "POB34_R": 4.3, "POB35": 4.0, "POB35_R": 5.8, "POB36": 4.0, "POB36_R": 5.8, "POB37": 5.0, "POB37_R": 7.2, "POB38": 6.0, "POB38_R": 8.7, "POB39": 1.0, "POB39_R": 1.4, "POB40": 1.0, "POB40_R": 1.4, "POB41": 2.0, "POB41_R": 2.9, "POB44": 2.0, "POB44_R": 2.9, "POB58": 1.0, "POB58_R": 1.4, "POB68": 3.0, "POB68_R": 4.3, "POB69": 5.0, "POB69_R": 7.2, "POB70": 3.0, "POB70_R": 4.3, "POB71": 0.0, "POB71_R": 0.0, "POB72": 3.0, "POB72_R": 4.3, "POB73": 4.0, "POB73_R": 5.8, "POB74": 2.0, "POB74_R": 2.9, "POB75": 2.0, "POB75_R": 2.9, "POB76": 2.0, "POB76_R": 2.9, "POB77": 1.0, "POB77_R": 1.4, "POB78": 3.0, "POB78_R": 4.3, "POB79": 3.0, "POB79_R": 4.3, "POB80": 4.0, "POB80_R": 5.8, "POB81": 0.0, "POB81_R": 0.0, "POB82": 0.0, "POB82_R": 0.0, "POB83": 1.0, "POB83_R": 1.4, "POB86": 3.0, "POB86_R": 4.3, "POB99": 4.0, "POB99_R": 5.8, "POB109": 2.0, "POB109_R": 2.9, "POB110": 2.0, "POB110_R": 2.9, "POB111": 1.0, "POB111_R": 1.4, "POB112": 1.0, "POB112_R": 1.4, "POB113": 1.0, "POB113_R": 1.4, "POB114": 2.0, "POB114_R": 2.9, "POB115": 1.0, "POB115_R": 1.4, "POB116": 1.0, "POB116_R": 1.4, "POB117": 1.0, "POB117_R": 1.4, "POB118": 3.0, "POB118_R": 4.3, "POB119": 1.0, "POB119_R": 1.4, "POB120": 2.0, "POB120_R": 2.9, "POB121": 2.0, "POB121_R": 2.9, "POB122": 1.0, "POB122_R": 1.4, "POB123": 1.0, "POB123_R": 1.4, "POB124": 1.0, "POB124_R": 1.4, "OID": 6545, "layer": "3_manco", "path": "D:\\Users\\asfigueroa\\Downloads\\3_manco.geojson" }, "geometry": { "type": "Point", "coordinates": [ -96.530024166298986, 17.127333333261191 ] } }
]
}
